<?xml version="1.0" encoding="UTF-8"?>
<seiscomp xmlns="http://geofon.gfz-potsdam.de/ns/seiscomp3-schema/0.7" version="0.7">
  <EventParameters>
    <pick publicID="20150924.091737.27-CA.CBRU..HHZ">
      <time>
        <value>2015-09-24T09:17:37.277698Z</value>
      </time>
      <waveformID networkCode="CA" stationCode="CBRU" channelCode="HHZ"/>
      <methodID>Trigger</methodID>
      <phaseHint>P</phaseHint>
      <evaluationMode>automatic</evaluationMode>
      <creationInfo>
        <agencyID>dt</agencyID>
        <author>scautopick@pascal-VirtualBox</author>
        <creationTime>2015-09-24T09:17:47.607358Z</creationTime>
      </creationInfo>
    </pick>
    <pick publicID="20150924.091740.49-CA.CBEU..HHZ">
      <time>
        <value>2015-09-24T09:17:40.49Z</value>
      </time>
      <waveformID networkCode="CA" stationCode="CBEU" channelCode="HHZ"/>
      <methodID>Trigger</methodID>
      <phaseHint>P</phaseHint>
      <evaluationMode>automatic</evaluationMode>
      <creationInfo>
        <agencyID>dt</agencyID>
        <author>scautopick@pascal-VirtualBox</author>
        <creationTime>2015-09-24T09:17:48.304146Z</creationTime>
      </creationInfo>
    </pick>
    <pick publicID="20150924.091742.73-FR.FILF.00.HHZ">
      <time>
        <value>2015-09-24T09:17:42.737884Z</value>
      </time>
      <waveformID networkCode="FR" stationCode="FILF" locationCode="00" channelCode="HHZ"/>
      <methodID>Trigger</methodID>
      <phaseHint>P</phaseHint>
      <evaluationMode>automatic</evaluationMode>
      <creationInfo>
        <agencyID>dt</agencyID>
        <author>scautopick@pascal-VirtualBox</author>
        <creationTime>2015-09-24T09:17:46.581646Z</creationTime>
      </creationInfo>
    </pick>
    <pick publicID="20150924.091748.56-CA.CLLI..HHZ">
      <time>
        <value>2015-09-24T09:17:48.56Z</value>
      </time>
      <waveformID networkCode="CA" stationCode="CLLI" channelCode="HHZ"/>
      <methodID>Trigger</methodID>
      <phaseHint>P</phaseHint>
      <evaluationMode>automatic</evaluationMode>
      <creationInfo>
        <agencyID>dt</agencyID>
        <author>scautopick@pascal-VirtualBox</author>
        <creationTime>2015-09-24T09:17:57.818613Z</creationTime>
      </creationInfo>
    </pick>
    <pick publicID="20150924.091748.99-CA.ARBS..HHZ">
      <time>
        <value>2015-09-24T09:17:48.99Z</value>
      </time>
      <waveformID networkCode="CA" stationCode="ARBS" channelCode="HHZ"/>
      <methodID>Trigger</methodID>
      <phaseHint>P</phaseHint>
      <evaluationMode>automatic</evaluationMode>
      <creationInfo>
        <agencyID>dt</agencyID>
        <author>scautopick@pascal-VirtualBox</author>
        <creationTime>2015-09-24T09:17:54.538857Z</creationTime>
      </creationInfo>
    </pick>
    <pick publicID="20150924.091751.28-CA.CSOR..HHZ">
      <time>
        <value>2015-09-24T09:17:51.28Z</value>
      </time>
      <waveformID networkCode="CA" stationCode="CSOR" channelCode="HHZ"/>
      <methodID>Trigger</methodID>
      <phaseHint>P</phaseHint>
      <evaluationMode>automatic</evaluationMode>
      <creationInfo>
        <agencyID>dt</agencyID>
        <author>scautopick@pascal-VirtualBox</author>
        <creationTime>2015-09-24T09:18:00.044766Z</creationTime>
      </creationInfo>
    </pick>
    <pick publicID="20150924.091751.97-CA.CEST..HHZ">
      <time>
        <value>2015-09-24T09:17:51.97Z</value>
      </time>
      <waveformID networkCode="CA" stationCode="CEST" channelCode="HHZ"/>
      <methodID>Trigger</methodID>
      <phaseHint>P</phaseHint>
      <evaluationMode>automatic</evaluationMode>
      <creationInfo>
        <agencyID>dt</agencyID>
        <author>scautopick@pascal-VirtualBox</author>
        <creationTime>2015-09-24T09:18:03.257309Z</creationTime>
      </creationInfo>
    </pick>
    <pick publicID="20150924.091755.71-CA.CTRE..HHZ">
      <time>
        <value>2015-09-24T09:17:55.71Z</value>
      </time>
      <waveformID networkCode="CA" stationCode="CTRE" channelCode="HHZ"/>
      <methodID>Trigger</methodID>
      <phaseHint>P</phaseHint>
      <evaluationMode>automatic</evaluationMode>
      <creationInfo>
        <agencyID>dt</agencyID>
        <author>scautopick@pascal-VirtualBox</author>
        <creationTime>2015-09-24T09:18:06.46879Z</creationTime>
      </creationInfo>
    </pick>
    <amplitude publicID="Amplitude#20150924091824.86542.2785">
      <type>mb</type>
      <amplitude>
        <value>25.93506591</value>
      </amplitude>
      <timeWindow>
        <reference>2015-09-24T09:18:05.199999Z</reference>
        <begin>-21.21</begin>
        <end>13.79</end>
      </timeWindow>
      <period>
        <value>2.1825</value>
      </period>
      <snr>1.59510882</snr>
      <pickID>20150924.091748.99-CA.ARBS..HHZ</pickID>
      <waveformID networkCode="CA" stationCode="ARBS" channelCode="HHZ"/>
      <creationInfo>
        <agencyID>dt</agencyID>
        <author>scamp@pascal-VirtualBox</author>
        <creationTime>2015-09-24T09:18:24.865482Z</creationTime>
      </creationInfo>
    </amplitude>
    <amplitude publicID="Amplitude#20150924091818.390893.2782">
      <type>mb</type>
      <amplitude>
        <value>26.74055508</value>
      </amplitude>
      <timeWindow>
        <reference>2015-09-24T09:17:49.71Z</reference>
        <begin>-14.22</begin>
        <end>20.78</end>
      </timeWindow>
      <period>
        <value>1.8875</value>
      </period>
      <snr>0.9232701533</snr>
      <pickID>20150924.091740.49-CA.CBEU..HHZ</pickID>
      <waveformID networkCode="CA" stationCode="CBEU" channelCode="HHZ"/>
      <creationInfo>
        <agencyID>dt</agencyID>
        <author>scamp@pascal-VirtualBox</author>
        <creationTime>2015-09-24T09:18:18.390962Z</creationTime>
      </creationInfo>
    </amplitude>
    <amplitude publicID="Amplitude#20150924091825.889824.2788">
      <type>mb</type>
      <amplitude>
        <value>13.21953037</value>
      </amplitude>
      <timeWindow>
        <reference>2015-09-24T09:18:09.219999Z</reference>
        <begin>-22.25</begin>
        <end>12.75</end>
      </timeWindow>
      <period>
        <value>1.6775</value>
      </period>
      <snr>1.036152362</snr>
      <pickID>20150924.091751.97-CA.CEST..HHZ</pickID>
      <waveformID networkCode="CA" stationCode="CEST" channelCode="HHZ"/>
      <creationInfo>
        <agencyID>dt</agencyID>
        <author>scamp@pascal-VirtualBox</author>
        <creationTime>2015-09-24T09:18:25.889874Z</creationTime>
      </creationInfo>
    </amplitude>
    <amplitude publicID="Amplitude#20150924091827.74645.2791">
      <type>mb</type>
      <amplitude>
        <value>12.66240088</value>
      </amplitude>
      <timeWindow>
        <reference>2015-09-24T09:17:58.8Z</reference>
        <begin>-15.24</begin>
        <end>19.76</end>
      </timeWindow>
      <period>
        <value>2.525</value>
      </period>
      <snr>0.9301707932</snr>
      <pickID>20150924.091748.56-CA.CLLI..HHZ</pickID>
      <waveformID networkCode="CA" stationCode="CLLI" channelCode="HHZ"/>
      <creationInfo>
        <agencyID>dt</agencyID>
        <author>scamp@pascal-VirtualBox</author>
        <creationTime>2015-09-24T09:18:27.746505Z</creationTime>
      </creationInfo>
    </amplitude>
    <amplitude publicID="20150924.091751.28-CA.CSOR..HHZ.mb">
      <type>mb</type>
      <amplitude>
        <value>14.64544541</value>
      </amplitude>
      <timeWindow>
        <reference>2015-09-24T09:17:51.609999Z</reference>
        <begin>-5.33</begin>
        <end>29.67</end>
      </timeWindow>
      <period>
        <value>1.225</value>
      </period>
      <snr>0.9713593794</snr>
      <pickID>20150924.091751.28-CA.CSOR..HHZ</pickID>
      <waveformID networkCode="CA" stationCode="CSOR" channelCode="HHZ"/>
      <creationInfo>
        <agencyID>dt</agencyID>
        <author>scautopick@pascal-VirtualBox</author>
        <creationTime>2015-09-24T09:18:30.192723Z</creationTime>
      </creationInfo>
    </amplitude>
    <amplitude publicID="20150924.091755.71-CA.CTRE..HHZ.mb">
      <type>mb</type>
      <amplitude>
        <value>25.74288309</value>
      </amplitude>
      <timeWindow>
        <reference>2015-09-24T09:17:56.57Z</reference>
        <begin>-5.86</begin>
        <end>29.14</end>
      </timeWindow>
      <period>
        <value>2.145</value>
      </period>
      <snr>1.453578591</snr>
      <pickID>20150924.091755.71-CA.CTRE..HHZ</pickID>
      <waveformID networkCode="CA" stationCode="CTRE" channelCode="HHZ"/>
      <creationInfo>
        <agencyID>dt</agencyID>
        <author>scautopick@pascal-VirtualBox</author>
        <creationTime>2015-09-24T09:18:36.540366Z</creationTime>
      </creationInfo>
    </amplitude>
    <amplitude publicID="20150924.091742.73-FR.FILF.00.HHZ.mb">
      <type>mb</type>
      <amplitude>
        <value>0.3237527884</value>
      </amplitude>
      <timeWindow>
        <reference>2015-09-24T09:17:56.397885Z</reference>
        <begin>-18.66</begin>
        <end>16.34</end>
      </timeWindow>
      <period>
        <value>1.285</value>
      </period>
      <snr>1.474961016</snr>
      <pickID>20150924.091742.73-FR.FILF.00.HHZ</pickID>
      <waveformID networkCode="FR" stationCode="FILF" locationCode="00" channelCode="HHZ"/>
      <creationInfo>
        <agencyID>dt</agencyID>
        <author>scautopick@pascal-VirtualBox</author>
        <creationTime>2015-09-24T09:18:17.532244Z</creationTime>
      </creationInfo>
    </amplitude>
    <origin publicID="Origin#20150924091813.939381.2090">
      <time>
        <value>2015-09-24T09:15:22.992007Z</value>
        <uncertainty>1.78175842</uncertainty>
      </time>
      <latitude>
        <value>35.37525558</value>
        <uncertainty>17.00377299</uncertainty>
      </latitude>
      <longitude>
        <value>11.08394051</value>
        <uncertainty>17.85385225</uncertainty>
      </longitude>
      <depth>
        <value>10</value>
        <uncertainty>0</uncertainty>
      </depth>
      <methodID>LOCSAT</methodID>
      <earthModelID>pyrenees</earthModelID>
      <quality>
        <associatedPhaseCount>8</associatedPhaseCount>
        <usedPhaseCount>7</usedPhaseCount>
        <associatedStationCount>8</associatedStationCount>
        <usedStationCount>7</usedStationCount>
        <standardError>1.238645458</standardError>
        <azimuthalGap>354.5205994</azimuthalGap>
        <maximumDistance>10.6043129</maximumDistance>
        <minimumDistance>9.490962982</minimumDistance>
        <medianDistance>10.23720455</medianDistance>
      </quality>
      <evaluationMode>automatic</evaluationMode>
      <creationInfo>
        <agencyID>dt</agencyID>
        <author>scautoloc@pascal-VirtualBox</author>
        <creationTime>2015-09-24T09:18:13.939333Z</creationTime>
      </creationInfo>
      <arrival>
        <pickID>20150924.091737.27-CA.CBRU..HHZ</pickID>
        <phase>P</phase>
        <azimuth>317.6096497</azimuth>
        <distance>9.780032158</distance>
        <timeResidual>-6.04359436</timeResidual>
        <weight>0</weight>
      </arrival>
      <arrival>
        <pickID>20150924.091740.49-CA.CBEU..HHZ</pickID>
        <phase>P</phase>
        <azimuth>318.9769287</azimuth>
        <distance>9.490962982</distance>
        <timeResidual>1.138061523</timeResidual>
        <weight>1</weight>
      </arrival>
      <arrival>
        <pickID>20150924.091742.73-FR.FILF.00.HHZ</pickID>
        <phase>P</phase>
        <azimuth>319.4919128</azimuth>
        <distance>9.839161873</distance>
        <timeResidual>-1.375427246</timeResidual>
        <weight>1</weight>
      </arrival>
      <arrival>
        <pickID>20150924.091748.56-CA.CLLI..HHZ</pickID>
        <phase>P</phase>
        <azimuth>317.8528748</azimuth>
        <distance>10.02282429</distance>
        <timeResidual>1.917358398</timeResidual>
        <weight>1</weight>
      </arrival>
      <arrival>
        <pickID>20150924.091748.99-CA.ARBS..HHZ</pickID>
        <phase>P</phase>
        <azimuth>316.4510803</azimuth>
        <distance>10.23720455</distance>
        <timeResidual>-0.5999603271</timeResidual>
        <weight>1</weight>
      </arrival>
      <arrival>
        <pickID>20150924.091751.28-CA.CSOR..HHZ</pickID>
        <phase>P</phase>
        <azimuth>315.139801</azimuth>
        <distance>10.42725658</distance>
        <timeResidual>-0.923324585</timeResidual>
        <weight>1</weight>
      </arrival>
      <arrival>
        <pickID>20150924.091751.97-CA.CEST..HHZ</pickID>
        <phase>P</phase>
        <azimuth>316.405365</azimuth>
        <distance>10.50099277</distance>
        <timeResidual>-1.22984314</timeResidual>
        <weight>1</weight>
      </arrival>
      <arrival>
        <pickID>20150924.091755.71-CA.CTRE..HHZ</pickID>
        <phase>P</phase>
        <azimuth>314.0125122</azimuth>
        <distance>10.6043129</distance>
        <timeResidual>1.073059082</timeResidual>
        <weight>1</weight>
      </arrival>
      <stationMagnitude publicID="Origin#20150924091813.939381.2090#staMag.mb#FR.FILF">
        <magnitude>
          <value>2.541553685</value>
        </magnitude>
        <type>mb</type>
        <amplitudeID>20150924.091742.73-FR.FILF.00.HHZ.mb</amplitudeID>
        <waveformID networkCode="FR" stationCode="FILF" locationCode="00" channelCode="HHZ"/>
        <creationInfo>
          <agencyID>dt</agencyID>
          <author>scmag@pascal-VirtualBox</author>
          <creationTime>2015-09-24T09:18:17.548369Z</creationTime>
        </creationInfo>
      </stationMagnitude>
      <stationMagnitude publicID="Origin#20150924091813.939381.2090#staMag.mb#CA.CBEU">
        <magnitude>
          <value>4.273002626</value>
        </magnitude>
        <type>mb</type>
        <amplitudeID>Amplitude#20150924091818.390893.2782</amplitudeID>
        <waveformID networkCode="CA" stationCode="CBEU" channelCode="HHZ"/>
        <creationInfo>
          <agencyID>dt</agencyID>
          <author>scmag@pascal-VirtualBox</author>
          <creationTime>2015-09-24T09:18:18.394444Z</creationTime>
        </creationInfo>
      </stationMagnitude>
      <stationMagnitude publicID="Origin#20150924091813.939381.2090#staMag.mb#CA.ARBS">
        <magnitude>
          <value>4.232936546</value>
        </magnitude>
        <type>mb</type>
        <amplitudeID>Amplitude#20150924091824.86542.2785</amplitudeID>
        <waveformID networkCode="CA" stationCode="ARBS" channelCode="HHZ"/>
        <creationInfo>
          <agencyID>dt</agencyID>
          <author>scmag@pascal-VirtualBox</author>
          <creationTime>2015-09-24T09:18:24.869744Z</creationTime>
        </creationInfo>
      </stationMagnitude>
      <stationMagnitude publicID="Origin#20150924091813.939381.2090#staMag.mb#CA.CEST">
        <magnitude>
          <value>4.064791977</value>
        </magnitude>
        <type>mb</type>
        <amplitudeID>Amplitude#20150924091825.889824.2788</amplitudeID>
        <waveformID networkCode="CA" stationCode="CEST" channelCode="HHZ"/>
        <creationInfo>
          <agencyID>dt</agencyID>
          <author>scmag@pascal-VirtualBox</author>
          <creationTime>2015-09-24T09:18:25.893103Z</creationTime>
        </creationInfo>
      </stationMagnitude>
      <stationMagnitude publicID="Origin#20150924091813.939381.2090#staMag.mb#CA.CLLI">
        <magnitude>
          <value>3.849940121</value>
        </magnitude>
        <type>mb</type>
        <amplitudeID>Amplitude#20150924091827.74645.2791</amplitudeID>
        <waveformID networkCode="CA" stationCode="CLLI" channelCode="HHZ"/>
        <creationInfo>
          <agencyID>dt</agencyID>
          <author>scmag@pascal-VirtualBox</author>
          <creationTime>2015-09-24T09:18:27.749513Z</creationTime>
        </creationInfo>
      </stationMagnitude>
      <stationMagnitude publicID="Origin#20150924091813.939381.2090#staMag.mb#CA.CSOR">
        <magnitude>
          <value>4.242943995</value>
        </magnitude>
        <type>mb</type>
        <amplitudeID>20150924.091751.28-CA.CSOR..HHZ.mb</amplitudeID>
        <waveformID networkCode="CA" stationCode="CSOR" channelCode="HHZ"/>
        <creationInfo>
          <agencyID>dt</agencyID>
          <author>scmag@pascal-VirtualBox</author>
          <creationTime>2015-09-24T09:18:30.199313Z</creationTime>
        </creationInfo>
      </stationMagnitude>
      <stationMagnitude publicID="Origin#20150924091813.939381.2090#staMag.mb#CA.CTRE">
        <magnitude>
          <value>4.251477208</value>
        </magnitude>
        <type>mb</type>
        <amplitudeID>20150924.091755.71-CA.CTRE..HHZ.mb</amplitudeID>
        <waveformID networkCode="CA" stationCode="CTRE" channelCode="HHZ"/>
        <creationInfo>
          <agencyID>dt</agencyID>
          <author>scmag@pascal-VirtualBox</author>
          <creationTime>2015-09-24T09:18:36.549884Z</creationTime>
        </creationInfo>
      </stationMagnitude>
      <magnitude publicID="Origin#20150924091813.939381.2090#netMag.mb">
        <magnitude>
          <value>4.094077978</value>
          <uncertainty>0.3188108373</uncertainty>
        </magnitude>
        <type>mb</type>
        <methodID>trimmed mean(25)</methodID>
        <stationCount>7</stationCount>
        <creationInfo>
          <agencyID>dt</agencyID>
          <author>scmag@pascal-VirtualBox</author>
          <creationTime>2015-09-24T09:18:17.548533Z</creationTime>
        </creationInfo>
        <stationMagnitudeContribution>
          <stationMagnitudeID>Origin#20150924091813.939381.2090#staMag.mb#CA.ARBS</stationMagnitudeID>
          <weight>1</weight>
        </stationMagnitudeContribution>
        <stationMagnitudeContribution>
          <stationMagnitudeID>Origin#20150924091813.939381.2090#staMag.mb#CA.CBEU</stationMagnitudeID>
          <weight>0.125</weight>
        </stationMagnitudeContribution>
        <stationMagnitudeContribution>
          <stationMagnitudeID>Origin#20150924091813.939381.2090#staMag.mb#CA.CEST</stationMagnitudeID>
          <weight>1</weight>
        </stationMagnitudeContribution>
        <stationMagnitudeContribution>
          <stationMagnitudeID>Origin#20150924091813.939381.2090#staMag.mb#CA.CLLI</stationMagnitudeID>
          <weight>1</weight>
        </stationMagnitudeContribution>
        <stationMagnitudeContribution>
          <stationMagnitudeID>Origin#20150924091813.939381.2090#staMag.mb#CA.CSOR</stationMagnitudeID>
          <weight>1</weight>
        </stationMagnitudeContribution>
        <stationMagnitudeContribution>
          <stationMagnitudeID>Origin#20150924091813.939381.2090#staMag.mb#CA.CTRE</stationMagnitudeID>
          <weight>1</weight>
        </stationMagnitudeContribution>
        <stationMagnitudeContribution>
          <stationMagnitudeID>Origin#20150924091813.939381.2090#staMag.mb#FR.FILF</stationMagnitudeID>
          <weight>0.125</weight>
        </stationMagnitudeContribution>
      </magnitude>
      <magnitude publicID="Origin#20150924091813.939381.2090#netMag.M">
        <magnitude>
          <value>4.094077978</value>
        </magnitude>
        <type>M</type>
        <methodID>weighted average</methodID>
        <stationCount>7</stationCount>
        <creationInfo>
          <agencyID>dt</agencyID>
          <author>scmag@pascal-VirtualBox</author>
          <creationTime>2015-09-24T09:18:17.550399Z</creationTime>
          <modificationTime>2015-09-24T09:18:36.550034Z</modificationTime>
        </creationInfo>
      </magnitude>
    </origin>
  </EventParameters>
</seiscomp>
