<?xml version="1.0" encoding="UTF-8"?>
<seiscomp xmlns="http://geofon.gfz-potsdam.de/ns/seiscomp3-schema/0.7" version="0.7">
  <EventParameters>
    <pick publicID="20140410.105903.24-FR.AJAC.00.HHZ">
      <time>
        <value>2014-04-10T10:59:03.242991Z</value>
      </time>
      <waveformID networkCode="FR" stationCode="AJAC" locationCode="00" channelCode="HHZ"/>
      <methodID>Trigger</methodID>
      <phaseHint>P</phaseHint>
      <evaluationMode>automatic</evaluationMode>
      <creationInfo>
        <agencyID>dt</agencyID>
        <author>scautopick@pascal-VirtualBox</author>
        <creationTime>2014-04-10T10:59:09.015747Z</creationTime>
      </creationInfo>
    </pick>
    <pick publicID="20140410.105904.69-CA.CBRU..HHZ">
      <time>
        <value>2014-04-10T10:59:04.697698Z</value>
      </time>
      <waveformID networkCode="CA" stationCode="CBRU" channelCode="HHZ"/>
      <methodID>Trigger</methodID>
      <phaseHint>P</phaseHint>
      <evaluationMode>automatic</evaluationMode>
      <creationInfo>
        <agencyID>dt</agencyID>
        <author>scautopick@pascal-VirtualBox</author>
        <creationTime>2014-04-10T10:59:11.315986Z</creationTime>
      </creationInfo>
    </pick>
    <pick publicID="20140410.105906.33-CA.CBEU..HHZ">
      <time>
        <value>2014-04-10T10:59:06.33Z</value>
      </time>
      <waveformID networkCode="CA" stationCode="CBEU" channelCode="HHZ"/>
      <methodID>Trigger</methodID>
      <phaseHint>P</phaseHint>
      <evaluationMode>automatic</evaluationMode>
      <creationInfo>
        <agencyID>dt</agencyID>
        <author>scautopick@pascal-VirtualBox</author>
        <creationTime>2014-04-10T10:59:11.908436Z</creationTime>
      </creationInfo>
    </pick>
    <pick publicID="20140410.105907.85-CA.ARBS..HHZ">
      <time>
        <value>2014-04-10T10:59:07.85Z</value>
      </time>
      <waveformID networkCode="CA" stationCode="ARBS" channelCode="HHZ"/>
      <methodID>Trigger</methodID>
      <phaseHint>P</phaseHint>
      <evaluationMode>automatic</evaluationMode>
      <creationInfo>
        <agencyID>dt</agencyID>
        <author>scautopick@pascal-VirtualBox</author>
        <creationTime>2014-04-10T10:59:25.50093Z</creationTime>
      </creationInfo>
    </pick>
    <pick publicID="20140410.105908.18-CA.CLLI..HHZ">
      <time>
        <value>2014-04-10T10:59:08.18Z</value>
      </time>
      <waveformID networkCode="CA" stationCode="CLLI" channelCode="HHZ"/>
      <methodID>Trigger</methodID>
      <phaseHint>P</phaseHint>
      <evaluationMode>automatic</evaluationMode>
      <creationInfo>
        <agencyID>dt</agencyID>
        <author>scautopick@pascal-VirtualBox</author>
        <creationTime>2014-04-10T10:59:21.170851Z</creationTime>
      </creationInfo>
    </pick>
    <pick publicID="20140410.105908.24-CA.CSOR..HHZ">
      <time>
        <value>2014-04-10T10:59:08.24Z</value>
      </time>
      <waveformID networkCode="CA" stationCode="CSOR" channelCode="HHZ"/>
      <methodID>Trigger</methodID>
      <phaseHint>P</phaseHint>
      <evaluationMode>automatic</evaluationMode>
      <creationInfo>
        <agencyID>dt</agencyID>
        <author>scautopick@pascal-VirtualBox</author>
        <creationTime>2014-04-10T10:59:23.592507Z</creationTime>
      </creationInfo>
    </pick>
    <pick publicID="20140410.105909.81-FR.FILF.00.HHZ">
      <time>
        <value>2014-04-10T10:59:09.815918Z</value>
      </time>
      <waveformID networkCode="FR" stationCode="FILF" locationCode="00" channelCode="HHZ"/>
      <methodID>Trigger</methodID>
      <phaseHint>P</phaseHint>
      <evaluationMode>automatic</evaluationMode>
      <creationInfo>
        <agencyID>dt</agencyID>
        <author>scautopick@pascal-VirtualBox</author>
        <creationTime>2014-04-10T10:59:16.236705Z</creationTime>
      </creationInfo>
    </pick>
    <pick publicID="20140410.105909.92-CA.CTRE..HHZ">
      <time>
        <value>2014-04-10T10:59:09.929999Z</value>
      </time>
      <waveformID networkCode="CA" stationCode="CTRE" channelCode="HHZ"/>
      <methodID>Trigger</methodID>
      <phaseHint>P</phaseHint>
      <evaluationMode>automatic</evaluationMode>
      <creationInfo>
        <agencyID>dt</agencyID>
        <author>scautopick@pascal-VirtualBox</author>
        <creationTime>2014-04-10T10:59:22.421146Z</creationTime>
      </creationInfo>
    </pick>
    <pick publicID="20140410.105910.77-CA.CPAL..HHZ">
      <time>
        <value>2014-04-10T10:59:10.77Z</value>
      </time>
      <waveformID networkCode="CA" stationCode="CPAL" channelCode="HHZ"/>
      <methodID>Trigger</methodID>
      <phaseHint>P</phaseHint>
      <evaluationMode>automatic</evaluationMode>
      <creationInfo>
        <agencyID>dt</agencyID>
        <author>scautopick@pascal-VirtualBox</author>
        <creationTime>2014-04-10T10:59:21.950543Z</creationTime>
      </creationInfo>
    </pick>
    <amplitude publicID="Amplitude#20140410105948.243335.7195">
      <type>mb</type>
      <amplitude>
        <value>7.086535882</value>
      </amplitude>
      <timeWindow>
        <reference>2014-04-10T10:59:26.849999Z</reference>
        <begin>-24</begin>
        <end>11</end>
      </timeWindow>
      <period>
        <value>1.945</value>
      </period>
      <snr>1.445181894</snr>
      <pickID>20140410.105907.85-CA.ARBS..HHZ</pickID>
      <waveformID networkCode="CA" stationCode="ARBS" channelCode="HHZ"/>
      <creationInfo>
        <agencyID>dt</agencyID>
        <author>scamp@pascal-VirtualBox</author>
        <creationTime>2014-04-10T10:59:48.243413Z</creationTime>
      </creationInfo>
    </amplitude>
    <amplitude publicID="Amplitude#20140410105949.325471.7197">
      <type>mb</type>
      <amplitude>
        <value>17.51961103</value>
      </amplitude>
      <timeWindow>
        <reference>2014-04-10T10:59:24.5Z</reference>
        <begin>-23.17</begin>
        <end>11.83</end>
      </timeWindow>
      <period>
        <value>1.0475</value>
      </period>
      <snr>2.736188131</snr>
      <pickID>20140410.105906.33-CA.CBEU..HHZ</pickID>
      <waveformID networkCode="CA" stationCode="CBEU" channelCode="HHZ"/>
      <creationInfo>
        <agencyID>dt</agencyID>
        <author>scamp@pascal-VirtualBox</author>
        <creationTime>2014-04-10T10:59:49.325573Z</creationTime>
      </creationInfo>
    </amplitude>
    <amplitude publicID="Amplitude#20140410105951.128411.7199">
      <type>mb</type>
      <amplitude>
        <value>5.022473264</value>
      </amplitude>
      <timeWindow>
        <reference>2014-04-10T10:59:07.789999Z</reference>
        <begin>-4.61</begin>
        <end>30.39</end>
      </timeWindow>
      <period>
        <value>0.815</value>
      </period>
      <snr>0.9200676782</snr>
      <pickID>20140410.105908.18-CA.CLLI..HHZ</pickID>
      <waveformID networkCode="CA" stationCode="CLLI" channelCode="HHZ"/>
      <creationInfo>
        <agencyID>dt</agencyID>
        <author>scamp@pascal-VirtualBox</author>
        <creationTime>2014-04-10T10:59:51.12846Z</creationTime>
      </creationInfo>
    </amplitude>
    <amplitude publicID="Amplitude#20140410105953.529121.7201">
      <type>mb</type>
      <amplitude>
        <value>9.196764596</value>
      </amplitude>
      <timeWindow>
        <reference>2014-04-10T10:59:26.58Z</reference>
        <begin>-23.34</begin>
        <end>11.66</end>
      </timeWindow>
      <period>
        <value>0.6425</value>
      </period>
      <snr>1.726180327</snr>
      <pickID>20140410.105908.24-CA.CSOR..HHZ</pickID>
      <waveformID networkCode="CA" stationCode="CSOR" channelCode="HHZ"/>
      <creationInfo>
        <agencyID>dt</agencyID>
        <author>scamp@pascal-VirtualBox</author>
        <creationTime>2014-04-10T10:59:53.529179Z</creationTime>
      </creationInfo>
    </amplitude>
    <amplitude publicID="Amplitude#20140410105945.224686.7189">
      <type>mb</type>
      <amplitude>
        <value>10.12745213</value>
      </amplitude>
      <timeWindow>
        <reference>2014-04-10T10:59:33.509999Z</reference>
        <begin>-28.58</begin>
        <end>6.42</end>
      </timeWindow>
      <period>
        <value>0.85</value>
      </period>
      <snr>2.015329087</snr>
      <pickID>20140410.105909.92-CA.CTRE..HHZ</pickID>
      <waveformID networkCode="CA" stationCode="CTRE" channelCode="HHZ"/>
      <creationInfo>
        <agencyID>dt</agencyID>
        <author>scamp@pascal-VirtualBox</author>
        <creationTime>2014-04-10T10:59:45.224751Z</creationTime>
      </creationInfo>
    </amplitude>
    <amplitude publicID="Amplitude#20140410105938.569945.7184">
      <type>mb</type>
      <amplitude>
        <value>4.432278376</value>
      </amplitude>
      <timeWindow>
        <reference>2014-04-10T10:59:04.76299Z</reference>
        <begin>-6.52</begin>
        <end>28.48</end>
      </timeWindow>
      <period>
        <value>1.2725</value>
      </period>
      <snr>0.7020716404</snr>
      <pickID>20140410.105903.24-FR.AJAC.00.HHZ</pickID>
      <waveformID networkCode="FR" stationCode="AJAC" locationCode="00" channelCode="HHZ"/>
      <creationInfo>
        <agencyID>dt</agencyID>
        <author>scamp@pascal-VirtualBox</author>
        <creationTime>2014-04-10T10:59:38.574329Z</creationTime>
      </creationInfo>
    </amplitude>
    <amplitude publicID="Amplitude#20140410105945.884511.7192">
      <type>mb</type>
      <amplitude>
        <value>0.1601023512</value>
      </amplitude>
      <timeWindow>
        <reference>2014-04-10T10:59:09.935921Z</reference>
        <begin>-5.12</begin>
        <end>29.88</end>
      </timeWindow>
      <period>
        <value>1.0775</value>
      </period>
      <snr>1.754264437</snr>
      <pickID>20140410.105909.81-FR.FILF.00.HHZ</pickID>
      <waveformID networkCode="FR" stationCode="FILF" locationCode="00" channelCode="HHZ"/>
      <creationInfo>
        <agencyID>dt</agencyID>
        <author>scamp@pascal-VirtualBox</author>
        <creationTime>2014-04-10T10:59:45.884574Z</creationTime>
      </creationInfo>
    </amplitude>
    <amplitude publicID="20140410.105903.24-FR.AJAC.00.HHZ.mB">
      <type>mB</type>
      <amplitude>
        <value>788.2870268</value>
      </amplitude>
      <timeWindow>
        <reference>2014-04-10T10:59:05.85299Z</reference>
        <begin>-7.61</begin>
        <end>57.39</end>
      </timeWindow>
      <snr>3.835494154</snr>
      <pickID>20140410.105903.24-FR.AJAC.00.HHZ</pickID>
      <waveformID networkCode="FR" stationCode="AJAC" locationCode="00" channelCode="HHZ"/>
      <creationInfo>
        <agencyID>dt</agencyID>
        <author>scautopick@pascal-VirtualBox</author>
        <creationTime>2014-04-10T11:00:09.214176Z</creationTime>
      </creationInfo>
    </amplitude>
    <origin publicID="Origin#20140410105931.080028.5618">
      <time>
        <value>2014-04-10T10:55:01.704308Z</value>
        <uncertainty>2.989513029</uncertainty>
      </time>
      <latitude>
        <value>42.82778931</value>
        <uncertainty>26.98886105</uncertainty>
      </latitude>
      <longitude>
        <value>1.808086262</value>
        <uncertainty>27.56649786</uncertainty>
      </longitude>
      <depth>
        <value>10</value>
        <uncertainty>0</uncertainty>
      </depth>
      <methodID>LOCSAT</methodID>
      <earthModelID>pyrenees</earthModelID>
      <quality>
        <associatedPhaseCount>9</associatedPhaseCount>
        <usedPhaseCount>8</usedPhaseCount>
        <associatedStationCount>9</associatedStationCount>
        <usedStationCount>8</usedStationCount>
        <standardError>0.9057221023</standardError>
        <azimuthalGap>340.3396349</azimuthalGap>
        <maximumDistance>17.8537159</maximumDistance>
        <minimumDistance>17.3892765</minimumDistance>
        <medianDistance>17.82343578</medianDistance>
      </quality>
      <evaluationMode>automatic</evaluationMode>
      <creationInfo>
        <agencyID>dt</agencyID>
        <author>scautoloc@pascal-VirtualBox</author>
        <creationTime>2014-04-10T10:59:31.079996Z</creationTime>
      </creationInfo>
      <arrival>
        <pickID>20140410.105903.24-FR.AJAC.00.HHZ</pickID>
        <phase>P</phase>
        <azimuth>9.533747673</azimuth>
        <distance>17.3892765</distance>
        <timeResidual>-0.06303405762</timeResidual>
        <weight>1</weight>
      </arrival>
      <arrival>
        <pickID>20140410.105904.69-CA.CBRU..HHZ</pickID>
        <phase>P</phase>
        <azimuth>353.2137451</azimuth>
        <distance>17.60573578</distance>
        <timeResidual>-1.286193848</timeResidual>
        <weight>1</weight>
      </arrival>
      <arrival>
        <pickID>20140410.105906.33-CA.CBEU..HHZ</pickID>
        <phase>P</phase>
        <azimuth>354.4082031</azimuth>
        <distance>17.52858353</distance>
        <timeResidual>1.30897522</timeResidual>
        <weight>1</weight>
      </arrival>
      <arrival>
        <pickID>20140410.105907.85-CA.ARBS..HHZ</pickID>
        <phase>P</phase>
        <azimuth>351.747345</azimuth>
        <distance>17.83020973</distance>
        <timeResidual>-0.9189453125</timeResidual>
        <weight>1</weight>
      </arrival>
      <arrival>
        <pickID>20140410.105908.18-CA.CLLI..HHZ</pickID>
        <phase>P</phase>
        <azimuth>352.8141174</azimuth>
        <distance>17.82001305</distance>
        <timeResidual>-0.4577026367</timeResidual>
        <weight>1</weight>
      </arrival>
      <arrival>
        <pickID>20140410.105908.24-CA.CSOR..HHZ</pickID>
        <phase>P</phase>
        <azimuth>350.7598267</azimuth>
        <distance>17.82685852</distance>
        <timeResidual>-0.4931945801</timeResidual>
        <weight>1</weight>
      </arrival>
      <arrival>
        <pickID>20140410.105909.81-FR.FILF.00.HHZ</pickID>
        <phase>P</phase>
        <azimuth>353.9090881</azimuth>
        <distance>17.8537159</distance>
        <timeResidual>0.7670288086</timeResidual>
        <weight>1</weight>
      </arrival>
      <arrival>
        <pickID>20140410.105909.92-CA.CTRE..HHZ</pickID>
        <phase>P</phase>
        <azimuth>349.8733826</azimuth>
        <distance>17.83080101</distance>
        <timeResidual>1.142562866</timeResidual>
        <weight>1</weight>
      </arrival>
      <arrival>
        <pickID>20140410.105910.77-CA.CPAL..HHZ</pickID>
        <phase>P</phase>
        <azimuth>355.6158447</azimuth>
        <distance>17.54476547</distance>
        <timeResidual>5.594314575</timeResidual>
        <weight>0</weight>
      </arrival>
      <stationMagnitude publicID="Origin#20140410105931.080028.5618#staMag.mb#FR.AJAC">
        <magnitude>
          <value>3.622763631</value>
        </magnitude>
        <type>mb</type>
        <amplitudeID>Amplitude#20140410105938.569945.7184</amplitudeID>
        <waveformID networkCode="FR" stationCode="AJAC" locationCode="00" channelCode="HHZ"/>
        <creationInfo>
          <agencyID>dt</agencyID>
          <author>scmag@pascal-VirtualBox</author>
          <creationTime>2014-04-10T10:59:38.582702Z</creationTime>
        </creationInfo>
      </stationMagnitude>
      <stationMagnitude publicID="Origin#20140410105931.080028.5618#staMag.mb#CA.CTRE">
        <magnitude>
          <value>4.150517779</value>
        </magnitude>
        <type>mb</type>
        <amplitudeID>Amplitude#20140410105945.224686.7189</amplitudeID>
        <waveformID networkCode="CA" stationCode="CTRE" channelCode="HHZ"/>
        <creationInfo>
          <agencyID>dt</agencyID>
          <author>scmag@pascal-VirtualBox</author>
          <creationTime>2014-04-10T10:59:45.229556Z</creationTime>
        </creationInfo>
      </stationMagnitude>
      <stationMagnitude publicID="Origin#20140410105931.080028.5618#staMag.mb#FR.FILF">
        <magnitude>
          <value>2.246086966</value>
        </magnitude>
        <type>mb</type>
        <amplitudeID>Amplitude#20140410105945.884511.7192</amplitudeID>
        <waveformID networkCode="FR" stationCode="FILF" locationCode="00" channelCode="HHZ"/>
        <creationInfo>
          <agencyID>dt</agencyID>
          <author>scmag@pascal-VirtualBox</author>
          <creationTime>2014-04-10T10:59:45.889313Z</creationTime>
        </creationInfo>
      </stationMagnitude>
      <stationMagnitude publicID="Origin#20140410105931.080028.5618#staMag.mb#CA.ARBS">
        <magnitude>
          <value>3.635959405</value>
        </magnitude>
        <type>mb</type>
        <amplitudeID>Amplitude#20140410105948.243335.7195</amplitudeID>
        <waveformID networkCode="CA" stationCode="ARBS" channelCode="HHZ"/>
        <creationInfo>
          <agencyID>dt</agencyID>
          <author>scmag@pascal-VirtualBox</author>
          <creationTime>2014-04-10T10:59:48.251882Z</creationTime>
        </creationInfo>
      </stationMagnitude>
      <stationMagnitude publicID="Origin#20140410105931.080028.5618#staMag.mb#CA.CBEU">
        <magnitude>
          <value>4.302158821</value>
        </magnitude>
        <type>mb</type>
        <amplitudeID>Amplitude#20140410105949.325471.7197</amplitudeID>
        <waveformID networkCode="CA" stationCode="CBEU" channelCode="HHZ"/>
        <creationInfo>
          <agencyID>dt</agencyID>
          <author>scmag@pascal-VirtualBox</author>
          <creationTime>2014-04-10T10:59:49.329146Z</creationTime>
        </creationInfo>
      </stationMagnitude>
      <stationMagnitude publicID="Origin#20140410105931.080028.5618#staMag.mb#CA.CLLI">
        <magnitude>
          <value>3.864351875</value>
        </magnitude>
        <type>mb</type>
        <amplitudeID>Amplitude#20140410105951.128411.7199</amplitudeID>
        <waveformID networkCode="CA" stationCode="CLLI" channelCode="HHZ"/>
        <creationInfo>
          <agencyID>dt</agencyID>
          <author>scmag@pascal-VirtualBox</author>
          <creationTime>2014-04-10T10:59:51.1347Z</creationTime>
        </creationInfo>
      </stationMagnitude>
      <stationMagnitude publicID="Origin#20140410105931.080028.5618#staMag.mb#CA.CSOR">
        <magnitude>
          <value>4.230255215</value>
        </magnitude>
        <type>mb</type>
        <amplitudeID>Amplitude#20140410105953.529121.7201</amplitudeID>
        <waveformID networkCode="CA" stationCode="CSOR" channelCode="HHZ"/>
        <creationInfo>
          <agencyID>dt</agencyID>
          <author>scmag@pascal-VirtualBox</author>
          <creationTime>2014-04-10T10:59:53.534699Z</creationTime>
        </creationInfo>
      </stationMagnitude>
      <stationMagnitude publicID="Origin#20140410105931.080028.5618#staMag.mB#FR.AJAC">
        <magnitude>
          <value>5.039298904</value>
        </magnitude>
        <type>mB</type>
        <amplitudeID>20140410.105903.24-FR.AJAC.00.HHZ.mB</amplitudeID>
        <waveformID networkCode="FR" stationCode="AJAC" locationCode="00" channelCode="HHZ"/>
        <creationInfo>
          <agencyID>dt</agencyID>
          <author>scmag@pascal-VirtualBox</author>
          <creationTime>2014-04-10T11:00:09.218189Z</creationTime>
        </creationInfo>
      </stationMagnitude>
      <magnitude publicID="Origin#20140410105931.080028.5618#netMag.mb">
        <magnitude>
          <value>3.870929262</value>
          <uncertainty>0.3992298712</uncertainty>
        </magnitude>
        <type>mb</type>
        <methodID>trimmed mean(25)</methodID>
        <stationCount>7</stationCount>
        <creationInfo>
          <agencyID>dt</agencyID>
          <author>scmag@pascal-VirtualBox</author>
          <creationTime>2014-04-10T10:59:38.58277Z</creationTime>
        </creationInfo>
        <stationMagnitudeContribution>
          <stationMagnitudeID>Origin#20140410105931.080028.5618#staMag.mb#CA.ARBS</stationMagnitudeID>
          <weight>1</weight>
        </stationMagnitudeContribution>
        <stationMagnitudeContribution>
          <stationMagnitudeID>Origin#20140410105931.080028.5618#staMag.mb#CA.CBEU</stationMagnitudeID>
