<?xml version="1.0" encoding="UTF-8"?>
<seiscomp xmlns="http://geofon.gfz-potsdam.de/ns/seiscomp3-schema/0.7" version="0.7">
  <EventParameters>
    <pick publicID="20150512.154125.46-CA.CEST..HHZ">
      <time>
        <value>2015-05-12T15:41:25.46Z</value>
      </time>
      <waveformID networkCode="CA" stationCode="CEST" channelCode="HHZ"/>
      <methodID>Trigger</methodID>
      <phaseHint>P</phaseHint>
      <evaluationMode>automatic</evaluationMode>
      <creationInfo>
        <agencyID>dt</agencyID>
        <author>scautopick@pascal-VirtualBox</author>
        <creationTime>2015-05-12T15:41:47.235236Z</creationTime>
      </creationInfo>
    </pick>
    <pick publicID="20150512.154125.97-CA.ARBS..HHZ">
      <time>
        <value>2015-05-12T15:41:25.97Z</value>
      </time>
      <waveformID networkCode="CA" stationCode="ARBS" channelCode="HHZ"/>
      <methodID>Trigger</methodID>
      <phaseHint>P</phaseHint>
      <evaluationMode>automatic</evaluationMode>
      <creationInfo>
        <agencyID>dt</agencyID>
        <author>scautopick@pascal-VirtualBox</author>
        <creationTime>2015-05-12T15:41:31.064782Z</creationTime>
      </creationInfo>
    </pick>
    <pick publicID="20150512.154127.22-FR.FILF.00.HHZ">
      <time>
        <value>2015-05-12T15:41:27.22285Z</value>
      </time>
      <waveformID networkCode="FR" stationCode="FILF" locationCode="00" channelCode="HHZ"/>
      <methodID>Trigger</methodID>
      <phaseHint>P</phaseHint>
      <evaluationMode>automatic</evaluationMode>
      <creationInfo>
        <agencyID>dt</agencyID>
        <author>scautopick@pascal-VirtualBox</author>
        <creationTime>2015-05-12T15:41:30.888796Z</creationTime>
      </creationInfo>
    </pick>
    <pick publicID="20150512.154130.01-CA.CSOR..HHZ">
      <time>
        <value>2015-05-12T15:41:30.01Z</value>
      </time>
      <waveformID networkCode="CA" stationCode="CSOR" channelCode="HHZ"/>
      <methodID>Trigger</methodID>
      <phaseHint>P</phaseHint>
      <evaluationMode>automatic</evaluationMode>
      <creationInfo>
        <agencyID>dt</agencyID>
        <author>scautopick@pascal-VirtualBox</author>
        <creationTime>2015-05-12T15:41:44.038877Z</creationTime>
      </creationInfo>
    </pick>
    <pick publicID="20150512.154134.79-CA.CBEU..HHZ">
      <time>
        <value>2015-05-12T15:41:34.79Z</value>
      </time>
      <waveformID networkCode="CA" stationCode="CBEU" channelCode="HHZ"/>
      <methodID>Trigger</methodID>
      <phaseHint>P</phaseHint>
      <evaluationMode>automatic</evaluationMode>
      <creationInfo>
        <agencyID>dt</agencyID>
        <author>scautopick@pascal-VirtualBox</author>
        <creationTime>2015-05-12T15:41:39.855725Z</creationTime>
      </creationInfo>
    </pick>
    <pick publicID="20150512.154137.53-FR.ARBF.00.HHZ">
      <time>
        <value>2015-05-12T15:41:37.533Z</value>
      </time>
      <waveformID networkCode="FR" stationCode="ARBF" locationCode="00" channelCode="HHZ"/>
      <methodID>Trigger</methodID>
      <phaseHint>P</phaseHint>
      <evaluationMode>automatic</evaluationMode>
      <creationInfo>
        <agencyID>dt</agencyID>
        <author>scautopick@pascal-VirtualBox</author>
        <creationTime>2015-05-12T17:12:12.212525Z</creationTime>
      </creationInfo>
    </pick>
    <pick publicID="20150512.154138.86-CA.CPAL..HHZ">
      <time>
        <value>2015-05-12T15:41:38.86Z</value>
      </time>
      <waveformID networkCode="CA" stationCode="CPAL" channelCode="HHZ"/>
      <methodID>Trigger</methodID>
      <phaseHint>P</phaseHint>
      <evaluationMode>automatic</evaluationMode>
      <creationInfo>
        <agencyID>dt</agencyID>
        <author>scautopick@pascal-VirtualBox</author>
        <creationTime>2015-05-12T15:41:49.839273Z</creationTime>
      </creationInfo>
    </pick>
    <amplitude publicID="20150512.154125.97-CA.ARBS..HHZ.MLv">
      <type>MLv</type>
      <amplitude>
        <value>0.1047957485</value>
      </amplitude>
      <timeWindow>
        <reference>2015-05-12T15:41:34.479999Z</reference>
        <begin>-13.51</begin>
        <end>141.49</end>
      </timeWindow>
      <snr>2.2090221</snr>
      <pickID>20150512.154125.97-CA.ARBS..HHZ</pickID>
      <waveformID networkCode="CA" stationCode="ARBS" channelCode="HHZ"/>
      <creationInfo>
        <agencyID>dt</agencyID>
        <author>scautopick@pascal-VirtualBox</author>
        <creationTime>2015-05-12T15:44:08.433319Z</creationTime>
      </creationInfo>
    </amplitude>
    <amplitude publicID="20150512.154134.79-CA.CBEU..HHZ.MLv">
      <type>MLv</type>
      <amplitude>
        <value>0.1162705096</value>
      </amplitude>
      <timeWindow>
        <reference>2015-05-12T15:44:01.67Z</reference>
        <begin>-151.88</begin>
        <end>3.12</end>
      </timeWindow>
      <snr>2.110102344</snr>
      <pickID>20150512.154134.79-CA.CBEU..HHZ</pickID>
      <waveformID networkCode="CA" stationCode="CBEU" channelCode="HHZ"/>
      <creationInfo>
        <agencyID>dt</agencyID>
        <author>scautopick@pascal-VirtualBox</author>
        <creationTime>2015-05-12T15:44:17.215823Z</creationTime>
      </creationInfo>
    </amplitude>
    <amplitude publicID="20150512.154125.46-CA.CEST..HHZ.MLv">
      <type>MLv</type>
      <amplitude>
        <value>0.1101759363</value>
      </amplitude>
      <timeWindow>
        <reference>2015-05-12T15:41:34.769999Z</reference>
        <begin>-14.31</begin>
        <end>140.69</end>
      </timeWindow>
      <snr>2.355994668</snr>
      <pickID>20150512.154125.46-CA.CEST..HHZ</pickID>
      <waveformID networkCode="CA" stationCode="CEST" channelCode="HHZ"/>
      <creationInfo>
        <agencyID>dt</agencyID>
        <author>scautopick@pascal-VirtualBox</author>
        <creationTime>2015-05-12T15:44:02.353384Z</creationTime>
      </creationInfo>
    </amplitude>
    <amplitude publicID="20150512.154130.01-CA.CSOR..HHZ.MLv">
      <type>MLv</type>
      <amplitude>
        <value>0.08755411648</value>
      </amplitude>
      <timeWindow>
        <reference>2015-05-12T15:41:41.019999Z</reference>
        <begin>-16.01</begin>
        <end>138.99</end>
      </timeWindow>
      <snr>1.579761128</snr>
      <pickID>20150512.154130.01-CA.CSOR..HHZ</pickID>
      <waveformID networkCode="CA" stationCode="CSOR" channelCode="HHZ"/>
      <creationInfo>
        <agencyID>dt</agencyID>
        <author>scautopick@pascal-VirtualBox</author>
        <creationTime>2015-05-12T15:44:06.741735Z</creationTime>
      </creationInfo>
    </amplitude>
    <amplitude publicID="Amplitude#20150512171212.460632.6235">
      <type>MLv</type>
      <amplitude>
        <value>0.2675507185</value>
      </amplitude>
      <timeWindow>
        <reference>2015-05-12T15:41:38.9489Z</reference>
        <begin>-6.416</begin>
        <end>155.112</end>
      </timeWindow>
      <snr>2.796590486</snr>
      <pickID>20150512.154137.53-FR.ARBF.00.HHZ</pickID>
      <waveformID networkCode="FR" stationCode="ARBF" locationCode="00" channelCode="HHZ"/>
      <creationInfo>
        <agencyID>dt</agencyID>
        <author>scamp@pascal-VirtualBox</author>
        <creationTime>2015-05-12T17:12:12.460677Z</creationTime>
      </creationInfo>
    </amplitude>
    <amplitude publicID="20150512.154127.22-FR.FILF.00.HHZ.MLv">
      <type>MLv</type>
      <amplitude>
        <value>0.001076128202</value>
      </amplitude>
      <timeWindow>
        <reference>2015-05-12T15:41:23.162849Z</reference>
        <begin>-0.94</begin>
        <end>154.06</end>
      </timeWindow>
      <snr>1.538581412</snr>
      <pickID>20150512.154127.22-FR.FILF.00.HHZ</pickID>
      <waveformID networkCode="FR" stationCode="FILF" locationCode="00" channelCode="HHZ"/>
      <creationInfo>
        <agencyID>dt</agencyID>
        <author>scautopick@pascal-VirtualBox</author>
        <creationTime>2015-05-12T15:44:01.720527Z</creationTime>
      </creationInfo>
    </amplitude>
    <origin publicID="Origin#20150512171212.304419.4864">
      <time>
        <value>2015-05-12T15:40:44.843452Z</value>
        <uncertainty>4.935362341</uncertainty>
      </time>
      <latitude>
        <value>45.14337158</value>
        <uncertainty>37.35114499</uncertainty>
      </latitude>
      <longitude>
        <value>1.155580044</value>
        <uncertainty>24.46081149</uncertainty>
      </longitude>
      <depth>
        <value>10</value>
        <uncertainty>0</uncertainty>
      </depth>
      <methodID>LOCSAT</methodID>
      <earthModelID>pyrenees</earthModelID>
      <quality>
        <associatedPhaseCount>7</associatedPhaseCount>
        <usedPhaseCount>6</usedPhaseCount>
        <associatedStationCount>7</associatedStationCount>
        <usedStationCount>6</usedStationCount>
        <standardError>1.290455988</standardError>
        <azimuthalGap>297.1060944</azimuthalGap>
        <maximumDistance>3.413451433</maximumDistance>
        <minimumDistance>2.545759916</minimumDistance>
        <medianDistance>2.754238367</medianDistance>
      </quality>
      <evaluationMode>automatic</evaluationMode>
      <creationInfo>
        <agencyID>dt</agencyID>
        <author>scautoloc@pascal-VirtualBox</author>
        <creationTime>2015-05-12T17:12:12.304405Z</creationTime>
      </creationInfo>
      <arrival>
        <pickID>20150512.154125.46-CA.CEST..HHZ</pickID>
        <phase>P</phase>
        <azimuth>178.3686981</azimuth>
        <distance>2.545759916</distance>
        <timeResidual>-0.06324005127</timeResidual>
        <weight>1</weight>
      </arrival>
      <arrival>
        <pickID>20150512.154125.97-CA.ARBS..HHZ</pickID>
        <phase>P</phase>
        <azimuth>174.108963</azimuth>
        <distance>2.722907543</distance>
        <timeResidual>-1.999706268</timeResidual>
        <weight>1</weight>
      </arrival>
      <arrival>
        <pickID>20150512.154127.22-FR.FILF.00.HHZ</pickID>
        <phase>P</phase>
        <azimuth>160.1708832</azimuth>
        <distance>2.739455938</distance>
        <timeResidual>-0.9888038635</timeResidual>
        <weight>1</weight>
      </arrival>
      <arrival>
        <pickID>20150512.154130.01-CA.CSOR..HHZ</pickID>
        <phase>P</phase>
        <azimuth>180.349884</azimuth>
        <distance>2.769020796</distance>
        <timeResidual>1.405174255</timeResidual>
        <weight>1</weight>
      </arrival>
      <arrival>
        <pickID>20150512.154134.79-CA.CBEU..HHZ</pickID>
        <phase>P</phase>
        <azimuth>158.6361389</azimuth>
        <distance>3.089668036</distance>
        <timeResidual>1.740066528</timeResidual>
        <weight>1</weight>
      </arrival>
      <arrival>
        <pickID>20150512.154137.53-FR.ARBF.00.HHZ</pickID>
        <phase>P</phase>
        <azimuth>117.4559784</azimuth>
        <distance>3.413451433</distance>
        <timeResidual>-0.09357452393</timeResidual>
        <weight>1</weight>
      </arrival>
      <arrival>
        <pickID>20150512.154138.86-CA.CPAL..HHZ</pickID>
        <phase>P</phase>
        <azimuth>152.1924591</azimuth>
        <distance>3.182227373</distance>
        <timeResidual>4.519294739</timeResidual>
        <weight>0</weight>
      </arrival>
      <stationMagnitude publicID="Origin#20150512171212.304419.4864#staMag.MLv#CA.ARBS">
        <magnitude>
          <value>3.033366925</value>
        </magnitude>
        <type>MLv</type>
        <amplitudeID>20150512.154125.97-CA.ARBS..HHZ.MLv</amplitudeID>
        <waveformID networkCode="CA" stationCode="ARBS" channelCode="HHZ"/>
        <creationInfo>
          <agencyID>dt</agencyID>
          <author>scmag@pascal-VirtualBox</author>
          <creationTime>2015-05-12T17:12:12.343279Z</creationTime>
        </creationInfo>
      </stationMagnitude>
      <stationMagnitude publicID="Origin#20150512171212.304419.4864#staMag.MLv#CA.CBEU">
        <magnitude>
          <value>3.28228865</value>
        </magnitude>
        <type>MLv</type>
        <amplitudeID>20150512.154134.79-CA.CBEU..HHZ.MLv</amplitudeID>
        <waveformID networkCode="CA" stationCode="CBEU" channelCode="HHZ"/>
        <creationInfo>
          <agencyID>dt</agencyID>
          <author>scmag@pascal-VirtualBox</author>
          <creationTime>2015-05-12T17:12:12.343453Z</creationTime>
        </creationInfo>
      </stationMagnitude>
      <stationMagnitude publicID="Origin#20150512171212.304419.4864#staMag.MLv#CA.CEST">
        <magnitude>
          <value>2.956675351</value>
        </magnitude>
        <type>MLv</type>
        <amplitudeID>20150512.154125.46-CA.CEST..HHZ.MLv</amplitudeID>
        <waveformID networkCode="CA" stationCode="CEST" channelCode="HHZ"/>
        <creationInfo>
          <agencyID>dt</agencyID>
          <author>scmag@pascal-VirtualBox</author>
          <creationTime>2015-05-12T17:12:12.343602Z</creationTime>
        </creationInfo>
      </stationMagnitude>
      <stationMagnitude publicID="Origin#20150512171212.304419.4864#staMag.MLv#CA.CSOR">
        <magnitude>
          <value>2.980923332</value>
        </magnitude>
        <type>MLv</type>
        <amplitudeID>20150512.154130.01-CA.CSOR..HHZ.MLv</amplitudeID>
        <waveformID networkCode="CA" stationCode="CSOR" channelCode="HHZ"/>
        <creationInfo>
          <agencyID>dt</agencyID>
          <author>scmag@pascal-VirtualBox</author>
          <creationTime>2015-05-12T17:12:12.343743Z</creationTime>
        </creationInfo>
      </stationMagnitude>
      <stationMagnitude publicID="Origin#20150512171212.304419.4864#staMag.MLv#FR.FILF">
        <magnitude>
          <value>1.054082631</value>
        </magnitude>
        <type>MLv</type>
        <amplitudeID>20150512.154127.22-FR.FILF.00.HHZ.MLv</amplitudeID>
        <waveformID networkCode="FR" stationCode="FILF" locationCode="00" channelCode="HHZ"/>
        <creationInfo>
          <agencyID>dt</agencyID>
          <author>scmag@pascal-VirtualBox</author>
          <creationTime>2015-05-12T17:12:12.343882Z</creationTime>
        </creationInfo>
      </stationMagnitude>
      <stationMagnitude publicID="Origin#20150512171212.304419.4864#staMag.MLv#FR.ARBF">
        <magnitude>
          <value>3.82414016</value>
        </magnitude>
        <type>MLv</type>
        <amplitudeID>Amplitude#20150512171212.460632.6235</amplitudeID>
        <waveformID networkCode="FR" stationCode="ARBF" locationCode="00" channelCode="HHZ"/>
        <creationInfo>
          <agencyID>dt</agencyID>
          <author>scmag@pascal-VirtualBox</author>
          <creationTime>2015-05-12T17:12:12.470262Z</creationTime>
        </creationInfo>
      </stationMagnitude>
      <magnitude publicID="Origin#20150512171212.304419.4864#netMag.MLv">
        <magnitude>
          <value>2.993957768</value>
          <uncertainty>0.5853758846</uncertainty>
        </magnitude>
        <type>MLv</type>
        <methodID>trimmed mean(25)</methodID>
        <stationCount>6</stationCount>
        <creationInfo>
          <agencyID>dt</agencyID>
          <author>scmag@pascal-VirtualBox</author>
          <creationTime>2015-05-12T17:12:12.343947Z</creationTime>
        </creationInfo>
        <stationMagnitudeContribution>
          <stationMagnitudeID>Origin#20150512171212.304419.4864#staMag.MLv#CA.ARBS</stationMagnitudeID>
          <weight>1</weight>
        </stationMagnitudeContribution>
        <stationMagnitudeContribution>
          <stationMagnitudeID>Origin#20150512171212.304419.4864#staMag.MLv#CA.CBEU</stationMagnitudeID>
          <weight>1</weight>
        </stationMagnitudeContribution>
        <stationMagnitudeContribution>
          <stationMagnitudeID>Origin#20150512171212.304419.4864#staMag.MLv#CA.CEST</stationMagnitudeID>
          <weight>1</weight>
        </stationMagnitudeContribution>
        <stationMagnitudeContribution>
          <stationMagnitudeID>Origin#20150512171212.304419.4864#staMag.MLv#CA.CSOR</stationMagnitudeID>
          <weight>1</weight>
        </stationMagnitudeContribution>
        <stationMagnitudeContribution>
          <stationMagnitudeID>Origin#20150512171212.304419.4864#staMag.MLv#FR.ARBF</stationMagnitudeID>
          <weight>0.25</weight>
        </stationMagnitudeContribution>
        <stationMagnitudeContribution>
          <stationMagnitudeID>Origin#20150512171212.304419.4864#staMag.MLv#FR.FILF</stationMagnitudeID>
          <weight>0.25</weight>
        </stationMagnitudeContribution>
      </magnitude>
      <magnitude publicID="Origin#20150512171212.304419.4864#netMag.M">
        <magnitude>
          <value>2.993957768</value>
        </magnitude>
        <type>M</type>
        <methodID>weighted average</methodID>
        <stationCount>6</stationCount>
        <creationInfo>
          <agencyID>dt</agencyID>
          <author>scmag@pascal-VirtualBox</author>
          <creationTime>2015-05-12T17:12:12.34402Z</creationTime>
          <modificationTime>2015-05-12T17:12:12.470377Z</modificationTime>
        </creationInfo>
      </magnitude>
    </origin>
  </EventParameters>
</seiscomp>
