<?xml version="1.0" encoding="UTF-8"?>
<seiscomp xmlns="http://geofon.gfz-potsdam.de/ns/seiscomp3-schema/0.7" version="0.7">
  <EventParameters>
    <pick publicID="20151007.094342.35-FR.ASEAF.00.HHZ">
      <time>
        <value>2015-10-07T09:43:42.359999Z</value>
      </time>
      <waveformID networkCode="FR" stationCode="ASEAF" locationCode="00" channelCode="HHZ"/>
      <methodID>Trigger</methodID>
      <phaseHint>P</phaseHint>
      <evaluationMode>automatic</evaluationMode>
      <creationInfo>
        <agencyID>dt</agencyID>
        <author>scautopick@pascal-VirtualBox</author>
        <creationTime>2015-10-07T09:43:48.052921Z</creationTime>
      </creationInfo>
    </pick>
    <pick publicID="20151007.094412.97-CA.CPAL..HHZ">
      <time>
        <value>2015-10-07T09:44:12.97Z</value>
      </time>
      <waveformID networkCode="CA" stationCode="CPAL" channelCode="HHZ"/>
      <methodID>Trigger</methodID>
      <phaseHint>P</phaseHint>
      <evaluationMode>automatic</evaluationMode>
      <creationInfo>
        <agencyID>dt</agencyID>
        <author>scautopick@pascal-VirtualBox</author>
        <creationTime>2015-10-07T09:44:19.927225Z</creationTime>
      </creationInfo>
    </pick>
    <pick publicID="20151007.094418.91-CA.CBEU..HHZ">
      <time>
        <value>2015-10-07T09:44:18.91Z</value>
      </time>
      <waveformID networkCode="CA" stationCode="CBEU" channelCode="HHZ"/>
      <methodID>Trigger</methodID>
      <phaseHint>P</phaseHint>
      <evaluationMode>automatic</evaluationMode>
      <creationInfo>
        <agencyID>dt</agencyID>
        <author>scautopick@pascal-VirtualBox</author>
        <creationTime>2015-10-07T09:44:32.100843Z</creationTime>
      </creationInfo>
    </pick>
    <pick publicID="20151007.094419.62-FR.FILF.00.HHZ">
      <time>
        <value>2015-10-07T09:44:19.627887Z</value>
      </time>
      <waveformID networkCode="FR" stationCode="FILF" locationCode="00" channelCode="HHZ"/>
      <methodID>Trigger</methodID>
      <phaseHint>P</phaseHint>
      <evaluationMode>automatic</evaluationMode>
      <creationInfo>
        <agencyID>dt</agencyID>
        <author>scautopick@pascal-VirtualBox</author>
        <creationTime>2015-10-07T09:44:23.607092Z</creationTime>
      </creationInfo>
    </pick>
    <pick publicID="20151007.094423.63-CA.CBRU..HHZ">
      <time>
        <value>2015-10-07T09:44:23.637698Z</value>
      </time>
      <waveformID networkCode="CA" stationCode="CBRU" channelCode="HHZ"/>
      <methodID>Trigger</methodID>
      <phaseHint>P</phaseHint>
      <evaluationMode>automatic</evaluationMode>
      <creationInfo>
        <agencyID>dt</agencyID>
        <author>scautopick@pascal-VirtualBox</author>
        <creationTime>2015-10-07T09:44:31.593592Z</creationTime>
      </creationInfo>
    </pick>
    <pick publicID="20151007.094433.12-CA.CEST..HHZ">
      <time>
        <value>2015-10-07T09:44:33.129999Z</value>
      </time>
      <waveformID networkCode="CA" stationCode="CEST" channelCode="HHZ"/>
      <methodID>Trigger</methodID>
      <phaseHint>P</phaseHint>
      <evaluationMode>automatic</evaluationMode>
      <creationInfo>
        <agencyID>dt</agencyID>
        <author>scautopick@pascal-VirtualBox</author>
        <creationTime>2015-10-07T09:44:39.672976Z</creationTime>
      </creationInfo>
    </pick>
    <pick publicID="20151007.094434.46-CA.CSOR..HHZ">
      <time>
        <value>2015-10-07T09:44:34.46Z</value>
      </time>
      <waveformID networkCode="CA" stationCode="CSOR" channelCode="HHZ"/>
      <methodID>Trigger</methodID>
      <phaseHint>P</phaseHint>
      <evaluationMode>automatic</evaluationMode>
      <creationInfo>
        <agencyID>dt</agencyID>
        <author>scautopick@pascal-VirtualBox</author>
        <creationTime>2015-10-07T09:44:44.03294Z</creationTime>
      </creationInfo>
    </pick>
    <pick publicID="20151007.094439.45-CA.CTRE..HHZ">
      <time>
        <value>2015-10-07T09:44:39.45Z</value>
      </time>
      <waveformID networkCode="CA" stationCode="CTRE" channelCode="HHZ"/>
      <methodID>Trigger</methodID>
      <phaseHint>P</phaseHint>
      <evaluationMode>automatic</evaluationMode>
      <creationInfo>
        <agencyID>dt</agencyID>
        <author>scautopick@pascal-VirtualBox</author>
        <creationTime>2015-10-07T09:44:50.30578Z</creationTime>
      </creationInfo>
    </pick>
    <amplitude publicID="20151007.094418.91-CA.CBEU..HHZ.MLv">
      <type>MLv</type>
      <amplitude>
        <value>0.3303315132</value>
      </amplitude>
      <timeWindow>
        <reference>2015-10-07T09:46:15.44Z</reference>
        <begin>-121.53</begin>
        <end>33.47</end>
      </timeWindow>
      <snr>1.633567226</snr>
      <pickID>20151007.094418.91-CA.CBEU..HHZ</pickID>
      <waveformID networkCode="CA" stationCode="CBEU" channelCode="HHZ"/>
      <creationInfo>
        <agencyID>dt</agencyID>
        <author>scautopick@pascal-VirtualBox</author>
        <creationTime>2015-10-07T09:46:54.730192Z</creationTime>
      </creationInfo>
    </amplitude>
    <amplitude publicID="20151007.094423.63-CA.CBRU..HHZ.MLv">
      <type>MLv</type>
      <amplitude>
        <value>0.2553581324</value>
      </amplitude>
      <timeWindow>
        <reference>2015-10-07T09:45:45.447698Z</reference>
        <begin>-86.81</begin>
        <end>68.19</end>
      </timeWindow>
      <snr>1.582698578</snr>
      <pickID>20151007.094423.63-CA.CBRU..HHZ</pickID>
      <waveformID networkCode="CA" stationCode="CBRU" channelCode="HHZ"/>
      <creationInfo>
        <agencyID>dt</agencyID>
        <author>scautopick@pascal-VirtualBox</author>
        <creationTime>2015-10-07T09:47:01.769301Z</creationTime>
      </creationInfo>
    </amplitude>
    <amplitude publicID="20151007.094433.12-CA.CEST..HHZ.MLv">
      <type>MLv</type>
      <amplitude>
        <value>0.178874628</value>
      </amplitude>
      <timeWindow>
        <reference>2015-10-07T09:46:44.18Z</reference>
        <begin>-136.05</begin>
        <end>18.95</end>
      </timeWindow>
      <snr>2.050652992</snr>
      <pickID>20151007.094433.12-CA.CEST..HHZ</pickID>
      <waveformID networkCode="CA" stationCode="CEST" channelCode="HHZ"/>
      <creationInfo>
        <agencyID>dt</agencyID>
        <author>scautopick@pascal-VirtualBox</author>
        <creationTime>2015-10-07T09:47:09.79852Z</creationTime>
      </creationInfo>
    </amplitude>
    <amplitude publicID="20151007.094412.97-CA.CPAL..HHZ.MLv">
      <type>MLv</type>
      <amplitude>
        <value>0.2514063997</value>
      </amplitude>
      <timeWindow>
        <reference>2015-10-07T09:44:46.509999Z</reference>
        <begin>-38.54</begin>
        <end>116.46</end>
      </timeWindow>
      <snr>1.608445733</snr>
      <pickID>20151007.094412.97-CA.CPAL..HHZ</pickID>
      <waveformID networkCode="CA" stationCode="CPAL" channelCode="HHZ"/>
      <creationInfo>
        <agencyID>dt</agencyID>
        <author>scautopick@pascal-VirtualBox</author>
        <creationTime>2015-10-07T09:46:49.803317Z</creationTime>
      </creationInfo>
    </amplitude>
    <amplitude publicID="20151007.094434.46-CA.CSOR..HHZ.MLv">
      <type>MLv</type>
      <amplitude>
        <value>0.19872277</value>
      </amplitude>
      <timeWindow>
        <reference>2015-10-07T09:46:42.949999Z</reference>
        <begin>-133.49</begin>
        <end>21.51</end>
      </timeWindow>
      <snr>1.976890987</snr>
      <pickID>20151007.094434.46-CA.CSOR..HHZ</pickID>
      <waveformID networkCode="CA" stationCode="CSOR" channelCode="HHZ"/>
      <creationInfo>
        <agencyID>dt</agencyID>
        <author>scautopick@pascal-VirtualBox</author>
        <creationTime>2015-10-07T09:47:14.097127Z</creationTime>
      </creationInfo>
    </amplitude>
    <amplitude publicID="20151007.094439.45-CA.CTRE..HHZ.MLv">
      <type>MLv</type>
      <amplitude>
        <value>0.2140444143</value>
      </amplitude>
      <timeWindow>
        <reference>2015-10-07T09:45:07.0000Z</reference>
        <begin>-32.55</begin>
        <end>122.45</end>
      </timeWindow>
      <snr>1.814672</snr>
      <pickID>20151007.094439.45-CA.CTRE..HHZ</pickID>
      <waveformID networkCode="CA" stationCode="CTRE" channelCode="HHZ"/>
      <creationInfo>
        <agencyID>dt</agencyID>
        <author>scautopick@pascal-VirtualBox</author>
        <creationTime>2015-10-07T09:47:20.471884Z</creationTime>
      </creationInfo>
    </amplitude>
    <amplitude publicID="Amplitude#20151007094502.970204.9309">
      <type>MLv</type>
      <amplitude>
        <value>1.588142372</value>
      </amplitude>
      <timeWindow>
        <reference>2015-10-07T09:44:06.199999Z</reference>
        <begin>-28.84</begin>
        <end>52.36</end>
      </timeWindow>
      <snr>2.025347805</snr>
      <pickID>20151007.094342.35-FR.ASEAF.00.HHZ</pickID>
      <waveformID networkCode="FR" stationCode="ASEAF" locationCode="00" channelCode="HHZ"/>
      <creationInfo>
        <agencyID>dt</agencyID>
        <author>scamp@pascal-VirtualBox</author>
        <creationTime>2015-10-07T09:45:02.970287Z</creationTime>
      </creationInfo>
    </amplitude>
    <amplitude publicID="20151007.094419.62-FR.FILF.00.HHZ.MLv">
      <type>MLv</type>
      <amplitude>
        <value>0.003432894215</value>
      </amplitude>
      <timeWindow>
        <reference>2015-10-07T09:46:31.807891Z</reference>
        <begin>-137.18</begin>
        <end>17.82</end>
      </timeWindow>
      <snr>2.184993098</snr>
      <pickID>20151007.094419.62-FR.FILF.00.HHZ</pickID>
      <waveformID networkCode="FR" stationCode="FILF" locationCode="00" channelCode="HHZ"/>
      <creationInfo>
        <agencyID>dt</agencyID>
        <author>scautopick@pascal-VirtualBox</author>
        <creationTime>2015-10-07T09:46:52.142511Z</creationTime>
      </creationInfo>
    </amplitude>
    <amplitude publicID="20151007.094439.45-CA.CTRE..HHZ.mb">
      <type>mb</type>
      <amplitude>
        <value>21.0715045</value>
      </amplitude>
      <timeWindow>
        <reference>2015-10-07T09:44:39.16Z</reference>
        <begin>-4.71</begin>
        <end>30.29</end>
      </timeWindow>
      <period>
        <value>1.58</value>
      </period>
      <snr>0.9767047319</snr>
      <pickID>20151007.094439.45-CA.CTRE..HHZ</pickID>
      <waveformID networkCode="CA" stationCode="CTRE" channelCode="HHZ"/>
      <creationInfo>
        <agencyID>dt</agencyID>
        <author>scautopick@pascal-VirtualBox</author>
        <creationTime>2015-10-07T09:45:20.358803Z</creationTime>
      </creationInfo>
    </amplitude>
    <origin publicID="Origin#20151007094450.475434.7308">
      <time>
        <value>2015-10-07T09:43:20.152343Z</value>
        <uncertainty>6.628398959</uncertainty>
      </time>
      <latitude>
        <value>42.61614227</value>
        <uncertainty>60.64615852</uncertainty>
      </latitude>
      <longitude>
        <value>7.841995239</value>
        <uncertainty>52.07600834</uncertainty>
      </longitude>
      <depth>
        <value>10</value>
        <uncertainty>0</uncertainty>
      </depth>
      <methodID>LOCSAT</methodID>
      <earthModelID>pyrenees</earthModelID>
      <quality>
        <associatedPhaseCount>8</associatedPhaseCount>
        <usedPhaseCount>8</usedPhaseCount>
        <associatedStationCount>8</associatedStationCount>
        <usedStationCount>8</usedStationCount>
        <standardError>0.769537995</standardError>
        <azimuthalGap>347.5351562</azimuthalGap>
        <maximumDistance>5.221645832</maximumDistance>
        <minimumDistance>1.246277213</minimumDistance>
        <medianDistance>4.092427254</medianDistance>
      </quality>
      <evaluationMode>automatic</evaluationMode>
      <creationInfo>
        <agencyID>dt</agencyID>
        <author>scautoloc@pascal-VirtualBox</author>
        <creationTime>2015-10-07T09:44:50.475354Z</creationTime>
      </creationInfo>
      <arrival>
        <pickID>20151007.094342.35-FR.ASEAF.00.HHZ</pickID>
        <phase>P</phase>
        <azimuth>278.8104248</azimuth>
        <distance>1.246277213</distance>
        <timeResidual>0.005434036255</timeResidual>
        <weight>1</weight>
      </arrival>
      <arrival>
        <pickID>20151007.094412.97-CA.CPAL..HHZ</pickID>
        <phase>P</phase>
        <azimuth>266.5233765</azimuth>
        <distance>3.465236425</distance>
        <timeResidual>-0.7131595612</timeResidual>
        <weight>1</weight>
      </arrival>
      <arrival>
        <pickID>20151007.094418.91-CA.CBEU..HHZ</pickID>
        <phase>P</phase>
        <azimuth>266.3455811</azimuth>
        <distance>3.829297066</distance>
        <timeResidual>0.186750412</timeResidual>
        <weight>1</weight>
      </arrival>
      <arrival>
        <pickID>20151007.094419.62-FR.FILF.00.HHZ</pickID>
        <phase>P</phase>
        <azimuth>271.0202637</azimuth>
        <distance>3.993982315</distance>
        <timeResidual>-1.377275467</timeResidual>
        <weight>1</weight>
      </arrival>
      <arrival>
        <pickID>20151007.094423.63-CA.CBRU..HHZ</pickID>
        <phase>P</phase>
        <azimuth>267.3763428</azimuth>
        <distance>4.190872192</distance>
        <timeResidual>-0.09185600281</timeResidual>
        <weight>1</weight>
      </arrival>
      <arrival>
        <pickID>20151007.094433.12-CA.CEST..HHZ</pickID>
        <phase>P</phase>
        <azimuth>272.0242004</azimuth>
        <distance>4.847637177</distance>
        <timeResidual>0.3161182404</timeResidual>
        <weight>1</weight>
      </arrival>
      <arrival>
        <pickID>20151007.094434.46-CA.CSOR..HHZ</pickID>
        <phase>P</phase>
        <azimuth>269.4731445</azimuth>
        <distance>4.951586246</distance>
        <timeResidual>0.2094593048</timeResidual>
        <weight>1</weight>
      </arrival>
      <arrival>
        <pickID>20151007.094439.45-CA.CTRE..HHZ</pickID>
        <phase>P</phase>
        <azimuth>269.1663513</azimuth>
        <distance>5.221645832</distance>
        <timeResidual>1.464540482</timeResidual>
        <weight>1</weight>
      </arrival>
      <stationMagnitude publicID="Origin#20151007094450.475434.7308#staMag.MLv#FR.ASEAF">
        <magnitude>
          <value>3.39340153</value>
        </magnitude>
        <type>MLv</type>
        <amplitudeID>Amplitude#20151007094502.970204.9309</amplitudeID>
        <waveformID networkCode="FR" stationCode="ASEAF" locationCode="00" channelCode="HHZ"/>
        <creationInfo>
          <agencyID>dt</agencyID>
          <author>scmag@pascal-VirtualBox</author>
          <creationTime>2015-10-07T09:45:02.983889Z</creationTime>
        </creationInfo>
      </stationMagnitude>
      <stationMagnitude publicID="Origin#20151007094450.475434.7308#staMag.mb#CA.CTRE">
        <magnitude>
          <value>3.907776206</value>
        </magnitude>
        <type>mb</type>
        <amplitudeID>20151007.094439.45-CA.CTRE..HHZ.mb</amplitudeID>
        <waveformID networkCode="CA" stationCode="CTRE" channelCode="HHZ"/>
        <creationInfo>
          <agencyID>dt</agencyID>
          <author>scmag@pascal-VirtualBox</author>
          <creationTime>2015-10-07T09:45:20.365696Z</creationTime>
        </creationInfo>
      </stationMagnitude>
      <stationMagnitude publicID="Origin#20151007094450.475434.7308#staMag.MLv#CA.CPAL">
        <magnitude>
          <value>3.825885453</value>
        </magnitude>
        <type>MLv</type>
        <amplitudeID>20151007.094412.97-CA.CPAL..HHZ.MLv</amplitudeID>
        <waveformID networkCode="CA" stationCode="CPAL" channelCode="HHZ"/>
        <creationInfo>
          <agencyID>dt</agencyID>
          <author>scmag@pascal-VirtualBox</author>
          <creationTime>2015-10-07T09:46:49.811697Z</creationTime>
        </creationInfo>
      </stationMagnitude>
      <stationMagnitude publicID="Origin#20151007094450.475434.7308#staMag.MLv#FR.FILF">
        <magnitude>
          <value>2.134351938</value>
        </magnitude>
        <type>MLv</type>
        <amplitudeID>20151007.094419.62-FR.FILF.00.HHZ.MLv</amplitudeID>
        <waveformID networkCode="FR" stationCode="FILF" locationCode="00" channelCode="HHZ"/>
        <creationInfo>
          <agencyID>dt</agencyID>
          <author>scmag@pascal-VirtualBox</author>
          <creationTime>2015-10-07T09:46:52.150681Z</creationTime>
        </creationInfo>
      </stationMagnitude>
      <stationMagnitude publicID="Origin#20151007094450.475434.7308#staMag.MLv#CA.CBEU">
        <magnitude>
          <value>4.076462133</value>
        </magnitude>
        <type>MLv</type>
        <amplitudeID>20151007.094418.91-CA.CBEU..HHZ.MLv</amplitudeID>
        <waveformID networkCode="CA" stationCode="CBEU" channelCode="HHZ"/>
        <creationInfo>
          <agencyID>dt</agencyID>
          <author>scmag@pascal-VirtualBox</author>
          <creationTime>2015-10-07T09:46:54.738103Z</creationTime>
        </creationInfo>
      </stationMagnitude>
      <stationMagnitude publicID="Origin#20151007094450.475434.7308#staMag.MLv#CA.CBRU">
        <magnitude>
          <value>4.055073339</value>
        </magnitude>
        <type>MLv</type>
        <amplitudeID>20151007.094423.63-CA.CBRU..HHZ.MLv</amplitudeID>
        <waveformID networkCode="CA" stationCode="CBRU" channelCode="HHZ"/>
        <creationInfo>
          <agencyID>dt</agencyID>
          <author>scmag@pascal-VirtualBox</author>
          <creationTime>2015-10-07T09:47:01.777588Z</creationTime>
        </creationInfo>
      </stationMagnitude>
      <stationMagnitude publicID="Origin#20151007094450.475434.7308#staMag.MLv#CA.CEST">
        <magnitude>
          <value>4.064695856</value>
        </magnitude>
        <type>MLv</type>
        <amplitudeID>20151007.094433.12-CA.CEST..HHZ.MLv</amplitudeID>
        <waveformID networkCode="CA" stationCode="CEST" channelCode="HHZ"/>
        <creationInfo>
          <agencyID>dt</agencyID>
          <author>scmag@pascal-VirtualBox</author>
          <creationTime>2015-10-07T09:47:09.807702Z</creationTime>
        </creationInfo>
      </stationMagnitude>
      <stationMagnitude publicID="Origin#20151007094450.475434.7308#staMag.MLv#CA.CSOR">
        <magnitude>
          <value>4.136387111</value>
        </magnitude>
        <type>MLv</type>
        <amplitudeID>20151007.094434.46-CA.CSOR..HHZ.MLv</amplitudeID>
        <waveformID networkCode="CA" stationCode="CSOR" channelCode="HHZ"/>
        <creationInfo>
          <agencyID>dt</agencyID>
          <author>scmag@pascal-VirtualBox</author>
          <creationTime>2015-10-07T09:47:14.10626Z</creationTime>
        </creationInfo>
      </stationMagnitude>
      <stationMagnitude publicID="Origin#20151007094450.475434.7308#staMag.MLv#CA.CTRE">
        <magnitude>
          <value>4.236171523</value>
        </magnitude>
        <type>MLv</type>
        <amplitudeID>20151007.094439.45-CA.CTRE..HHZ.MLv</amplitudeID>
        <waveformID networkCode="CA" stationCode="CTRE" channelCode="HHZ"/>
        <creationInfo>
          <agencyID>dt</agencyID>
          <author>scmag@pascal-VirtualBox</author>
          <creationTime>2015-10-07T09:47:20.480405Z</creationTime>
        </creationInfo>
      </stationMagnitude>
      <magnitude publicID="Origin#20151007094450.475434.7308#netMag.MLv">
        <magnitude>
          <value>3.92531757</value>
          <uncertainty>0.2815952115</uncertainty>
        </magnitude>
        <type>MLv</type>
        <methodID>trimmed mean(25)</methodID>
        <stationCount>6</stationCount>
        <creationInfo>
          <agencyID>dt</agencyID>
          <author>scmag@pascal-VirtualBox</author>
          <creationTime>2015-10-07T09:45:02.983981Z</creationTime>
        </creationInfo>
        <stationMagnitudeContribution>
          <stationMagnitudeID>Origin#20151007094450.475434.7308#staMag.MLv#CA.CBEU</stationMagnitudeID>
          <weight>1</weight>
        </stationMagnitudeContribution>
        <stationMagnitudeContribution>
