<?xml version="1.0" encoding="UTF-8"?>
<seiscomp xmlns="http://geofon.gfz-potsdam.de/ns/seiscomp3-schema/0.7" version="0.7">
  <EventParameters>
    <pick publicID="20140319.121320.25-CA.CBEU..HHZ">
      <time>
        <value>2014-03-19T12:13:20.25Z</value>
      </time>
      <waveformID networkCode="CA" stationCode="CBEU" channelCode="HHZ"/>
      <methodID>Trigger</methodID>
      <phaseHint>P</phaseHint>
      <evaluationMode>automatic</evaluationMode>
      <creationInfo>
        <agencyID>dt</agencyID>
        <author>scautopick@pascal-VirtualBox</author>
        <creationTime>2014-03-19T12:13:35.663787Z</creationTime>
      </creationInfo>
    </pick>
    <pick publicID="20140319.121321.41-FR.SJAF.00.HHZ">
      <time>
        <value>2014-03-19T12:13:21.414908Z</value>
      </time>
      <waveformID networkCode="FR" stationCode="SJAF" locationCode="00" channelCode="HHZ"/>
      <methodID>Trigger</methodID>
      <phaseHint>P</phaseHint>
      <evaluationMode>automatic</evaluationMode>
      <creationInfo>
        <agencyID>dt</agencyID>
        <author>scautopick@pascal-VirtualBox</author>
        <creationTime>2014-03-19T12:13:35.442181Z</creationTime>
      </creationInfo>
    </pick>
    <pick publicID="20140319.121326.18-FR.FILF.00.HHZ">
      <time>
        <value>2014-03-19T12:13:26.180909Z</value>
      </time>
      <waveformID networkCode="FR" stationCode="FILF" locationCode="00" channelCode="HHZ"/>
      <methodID>Trigger</methodID>
      <phaseHint>P</phaseHint>
      <evaluationMode>automatic</evaluationMode>
      <creationInfo>
        <agencyID>dt</agencyID>
        <author>scautopick@pascal-VirtualBox</author>
        <creationTime>2014-03-19T12:13:40.554781Z</creationTime>
      </creationInfo>
    </pick>
    <pick publicID="20140319.121326.30-CA.CBRU..HHZ">
      <time>
        <value>2014-03-19T12:13:26.307698Z</value>
      </time>
      <waveformID networkCode="CA" stationCode="CBRU" channelCode="HHZ"/>
      <methodID>Trigger</methodID>
      <phaseHint>P</phaseHint>
      <evaluationMode>automatic</evaluationMode>
      <creationInfo>
        <agencyID>dt</agencyID>
        <author>scautopick@pascal-VirtualBox</author>
        <creationTime>2014-03-19T12:13:42.430024Z</creationTime>
      </creationInfo>
    </pick>
    <pick publicID="20140319.121329.96-CA.CLLI..HHZ">
      <time>
        <value>2014-03-19T12:13:29.969999Z</value>
      </time>
      <waveformID networkCode="CA" stationCode="CLLI" channelCode="HHZ"/>
      <methodID>Trigger</methodID>
      <phaseHint>P</phaseHint>
      <evaluationMode>automatic</evaluationMode>
      <creationInfo>
        <agencyID>dt</agencyID>
        <author>scautopick@pascal-VirtualBox</author>
        <creationTime>2014-03-19T12:13:45.166515Z</creationTime>
      </creationInfo>
    </pick>
    <pick publicID="20140319.121332.06-FR.FNEB.00.HHZ">
      <time>
        <value>2014-03-19T12:13:32.062457Z</value>
      </time>
      <waveformID networkCode="FR" stationCode="FNEB" locationCode="00" channelCode="HHZ"/>
      <methodID>Trigger</methodID>
      <phaseHint>P</phaseHint>
      <evaluationMode>automatic</evaluationMode>
      <creationInfo>
        <agencyID>dt</agencyID>
        <author>scautopick@pascal-VirtualBox</author>
        <creationTime>2014-03-19T12:13:44.966964Z</creationTime>
      </creationInfo>
    </pick>
    <pick publicID="20140319.121334.13-CA.ARBS..HHZ">
      <time>
        <value>2014-03-19T12:13:34.13Z</value>
      </time>
      <waveformID networkCode="CA" stationCode="ARBS" channelCode="HHZ"/>
      <methodID>Trigger</methodID>
      <phaseHint>P</phaseHint>
      <evaluationMode>automatic</evaluationMode>
      <creationInfo>
        <agencyID>dt</agencyID>
        <author>scautopick@pascal-VirtualBox</author>
        <creationTime>2014-03-19T12:13:49.384659Z</creationTime>
      </creationInfo>
    </pick>
    <pick publicID="20140319.121338.06-CA.CEST..HHZ">
      <time>
        <value>2014-03-19T12:13:38.069998Z</value>
      </time>
      <waveformID networkCode="CA" stationCode="CEST" channelCode="HHZ"/>
      <methodID>Trigger</methodID>
      <phaseHint>P</phaseHint>
      <evaluationMode>automatic</evaluationMode>
      <creationInfo>
        <agencyID>dt</agencyID>
        <author>scautopick@pascal-VirtualBox</author>
        <creationTime>2014-03-19T12:13:58.003799Z</creationTime>
      </creationInfo>
    </pick>
    <pick publicID="20140319.121338.08-CA.CSOR..HHZ">
      <time>
        <value>2014-03-19T12:13:38.089999Z</value>
      </time>
      <waveformID networkCode="CA" stationCode="CSOR" channelCode="HHZ"/>
      <methodID>Trigger</methodID>
      <phaseHint>P</phaseHint>
      <evaluationMode>automatic</evaluationMode>
      <creationInfo>
        <agencyID>dt</agencyID>
        <author>scautopick@pascal-VirtualBox</author>
        <creationTime>2014-03-19T12:13:54.924125Z</creationTime>
      </creationInfo>
    </pick>
    <pick publicID="20140319.121341.18-FR.ASEAF.00.HHZ">
      <time>
        <value>2014-03-19T12:13:41.189999Z</value>
      </time>
      <waveformID networkCode="FR" stationCode="ASEAF" locationCode="00" channelCode="HHZ"/>
      <methodID>Trigger</methodID>
      <phaseHint>P</phaseHint>
      <evaluationMode>automatic</evaluationMode>
      <creationInfo>
        <agencyID>dt</agencyID>
        <author>scautopick@pascal-VirtualBox</author>
        <creationTime>2014-03-19T12:13:56.697006Z</creationTime>
      </creationInfo>
    </pick>
    <pick publicID="20140319.121341.57-CA.CTRE..HHZ">
      <time>
        <value>2014-03-19T12:13:41.57Z</value>
      </time>
      <waveformID networkCode="CA" stationCode="CTRE" channelCode="HHZ"/>
      <methodID>Trigger</methodID>
      <phaseHint>P</phaseHint>
      <evaluationMode>automatic</evaluationMode>
      <creationInfo>
        <agencyID>dt</agencyID>
        <author>scautopick@pascal-VirtualBox</author>
        <creationTime>2014-03-19T12:14:01.220356Z</creationTime>
      </creationInfo>
    </pick>
    <pick publicID="20140319.121342.18-FR.MLS.00.HHZ">
      <time>
        <value>2014-03-19T12:13:42.1873Z</value>
      </time>
      <waveformID networkCode="FR" stationCode="MLS" locationCode="00" channelCode="HHZ"/>
      <methodID>Trigger</methodID>
      <phaseHint>P</phaseHint>
      <evaluationMode>automatic</evaluationMode>
      <creationInfo>
        <agencyID>dt</agencyID>
        <author>scautopick@pascal-VirtualBox</author>
        <creationTime>2014-03-19T12:13:53.993089Z</creationTime>
      </creationInfo>
    </pick>
    <pick publicID="20140319.121346.03-FR.ARTF.00.HHZ">
      <time>
        <value>2014-03-19T12:13:46.030659Z</value>
      </time>
      <waveformID networkCode="FR" stationCode="ARTF" locationCode="00" channelCode="HHZ"/>
      <methodID>Trigger</methodID>
      <phaseHint>P</phaseHint>
      <evaluationMode>automatic</evaluationMode>
      <creationInfo>
        <agencyID>dt</agencyID>
        <author>scautopick@pascal-VirtualBox</author>
        <creationTime>2014-03-19T12:14:09.953378Z</creationTime>
      </creationInfo>
    </pick>
    <pick publicID="20140319.121353.71-FR.MONQ.00.HHZ">
      <time>
        <value>2014-03-19T12:13:53.719961Z</value>
      </time>
      <waveformID networkCode="FR" stationCode="MONQ" locationCode="00" channelCode="HHZ"/>
      <methodID>Trigger</methodID>
      <phaseHint>P</phaseHint>
      <evaluationMode>automatic</evaluationMode>
      <creationInfo>
        <agencyID>dt</agencyID>
        <author>scautopick@pascal-VirtualBox</author>
        <creationTime>2014-03-19T12:14:08.932156Z</creationTime>
      </creationInfo>
    </pick>
    <pick publicID="20140319.121359.75-FR.ATE.00.HHZ">
      <time>
        <value>2014-03-19T12:13:59.758872Z</value>
      </time>
      <waveformID networkCode="FR" stationCode="ATE" locationCode="00" channelCode="HHZ"/>
      <methodID>Trigger</methodID>
      <phaseHint>P</phaseHint>
      <evaluationMode>automatic</evaluationMode>
      <creationInfo>
        <agencyID>dt</agencyID>
        <author>scautopick@pascal-VirtualBox</author>
        <creationTime>2014-03-19T12:14:13.843552Z</creationTime>
      </creationInfo>
    </pick>
    <pick publicID="20140319.121404.43-FR.AJAC.00.HHZ">
      <time>
        <value>2014-03-19T12:14:04.432983Z</value>
      </time>
      <waveformID networkCode="FR" stationCode="AJAC" locationCode="00" channelCode="HHZ"/>
      <methodID>Trigger</methodID>
      <phaseHint>P</phaseHint>
      <evaluationMode>automatic</evaluationMode>
      <creationInfo>
        <agencyID>dt</agencyID>
        <author>scautopick@pascal-VirtualBox</author>
        <creationTime>2014-03-19T12:14:18.753763Z</creationTime>
      </creationInfo>
    </pick>
    <amplitude publicID="Amplitude#20140319121526.638943.11220">
      <type>MLv</type>
      <amplitude>
        <value>3.315373236</value>
      </amplitude>
      <timeWindow>
        <reference>2014-03-19T12:13:56.1Z</reference>
        <begin>0</begin>
        <end>0</end>
      </timeWindow>
      <snr>45.93438004</snr>
      <pickID>20140319.121334.13-CA.ARBS..HHZ</pickID>
      <waveformID networkCode="CA" stationCode="ARBS" channelCode="HHZ"/>
      <creationInfo>
        <agencyID>dt</agencyID>
        <author>scamp@pascal-VirtualBox</author>
        <creationTime>2014-03-19T12:15:26.638994Z</creationTime>
      </creationInfo>
    </amplitude>
    <amplitude publicID="Amplitude#20140319121457.419295.11214">
      <type>MLv</type>
      <amplitude>
        <value>6.710934364</value>
      </amplitude>
      <timeWindow>
        <reference>2014-03-19T12:13:41.487699Z</reference>
        <begin>0</begin>
        <end>0</end>
      </timeWindow>
      <snr>93.63322332</snr>
      <pickID>20140319.121326.30-CA.CBRU..HHZ</pickID>
      <waveformID networkCode="CA" stationCode="CBRU" channelCode="HHZ"/>
      <creationInfo>
        <agencyID>dt</agencyID>
        <author>scamp@pascal-VirtualBox</author>
        <creationTime>2014-03-19T12:14:57.419356Z</creationTime>
      </creationInfo>
    </amplitude>
    <amplitude publicID="Amplitude#20140319121535.582843.11222">
      <type>MLv</type>
      <amplitude>
        <value>2.516324949</value>
      </amplitude>
      <timeWindow>
        <reference>2014-03-19T12:14:03.279999Z</reference>
        <begin>0</begin>
        <end>0</end>
      </timeWindow>
      <snr>65.04015136</snr>
      <pickID>20140319.121338.06-CA.CEST..HHZ</pickID>
      <waveformID networkCode="CA" stationCode="CEST" channelCode="HHZ"/>
      <creationInfo>
        <agencyID>dt</agencyID>
        <author>scamp@pascal-VirtualBox</author>
        <creationTime>2014-03-19T12:15:35.582903Z</creationTime>
      </creationInfo>
    </amplitude>
    <amplitude publicID="Amplitude#20140319121507.552919.11216">
      <type>MLv</type>
      <amplitude>
        <value>7.10853808</value>
      </amplitude>
      <timeWindow>
        <reference>2014-03-19T12:13:47.93Z</reference>
        <begin>0</begin>
        <end>0</end>
      </timeWindow>
      <snr>83.03426747</snr>
      <pickID>20140319.121329.96-CA.CLLI..HHZ</pickID>
      <waveformID networkCode="CA" stationCode="CLLI" channelCode="HHZ"/>
      <creationInfo>
        <agencyID>dt</agencyID>
        <author>scamp@pascal-VirtualBox</author>
        <creationTime>2014-03-19T12:15:07.552998Z</creationTime>
      </creationInfo>
    </amplitude>
    <amplitude publicID="Amplitude#20140319121539.743259.11224">
      <type>MLv</type>
      <amplitude>
        <value>3.356452347</value>
      </amplitude>
      <timeWindow>
        <reference>2014-03-19T12:14:06.729999Z</reference>
        <begin>0</begin>
        <end>0</end>
      </timeWindow>
      <snr>47.72791838</snr>
      <pickID>20140319.121338.08-CA.CSOR..HHZ</pickID>
      <waveformID networkCode="CA" stationCode="CSOR" channelCode="HHZ"/>
      <creationInfo>
        <agencyID>dt</agencyID>
        <author>scamp@pascal-VirtualBox</author>
        <creationTime>2014-03-19T12:15:39.743323Z</creationTime>
      </creationInfo>
    </amplitude>
    <amplitude publicID="Amplitude#20140319121546.366044.11226">
      <type>MLv</type>
      <amplitude>
        <value>1.738744788</value>
      </amplitude>
      <timeWindow>
        <reference>2014-03-19T12:14:15.739999Z</reference>
        <begin>0</begin>
        <end>0</end>
      </timeWindow>
      <snr>25.10254325</snr>
      <pickID>20140319.121341.57-CA.CTRE..HHZ</pickID>
      <waveformID networkCode="CA" stationCode="CTRE" channelCode="HHZ"/>
      <creationInfo>
        <agencyID>dt</agencyID>
        <author>scamp@pascal-VirtualBox</author>
        <creationTime>2014-03-19T12:15:46.366095Z</creationTime>
      </creationInfo>
    </amplitude>
    <amplitude publicID="20140319.121404.43-FR.AJAC.00.HHZ.MLv">
      <type>MLv</type>
      <amplitude>
        <value>0.4429816569</value>
      </amplitude>
      <timeWindow>
        <reference>2014-03-19T12:14:49.152978Z</reference>
        <begin>0</begin>
        <end>0</end>
      </timeWindow>
      <snr>6.786850991</snr>
      <pickID>20140319.121404.43-FR.AJAC.00.HHZ</pickID>
      <waveformID networkCode="FR" stationCode="AJAC" locationCode="00" channelCode="HHZ"/>
      <creationInfo>
        <agencyID>dt</agencyID>
        <author>scautopick@pascal-VirtualBox</author>
        <creationTime>2014-03-19T12:16:48.211314Z</creationTime>
      </creationInfo>
    </amplitude>
    <amplitude publicID="Amplitude#20140319121605.422399.11281">
      <type>MLv</type>
      <amplitude>
        <value>0.4795760527</value>
      </amplitude>
      <timeWindow>
        <reference>2014-03-19T12:14:39.300658Z</reference>
        <begin>0</begin>
        <end>0</end>
      </timeWindow>
      <snr>4.264285879</snr>
      <pickID>20140319.121346.03-FR.ARTF.00.HHZ</pickID>
      <waveformID networkCode="FR" stationCode="ARTF" locationCode="00" channelCode="HHZ"/>
      <creationInfo>
        <agencyID>dt</agencyID>
        <author>scamp@pascal-VirtualBox</author>
        <creationTime>2014-03-19T12:16:05.422448Z</creationTime>
      </creationInfo>
    </amplitude>
    <amplitude publicID="Amplitude#20140319121546.774079.11228">
      <type>MLv</type>
      <amplitude>
        <value>1.399133976</value>
      </amplitude>
      <timeWindow>
        <reference>2014-03-19T12:14:26.12Z</reference>
        <begin>0</begin>
        <end>0</end>
      </timeWindow>
      <snr>1.591385471</snr>
      <pickID>20140319.121341.18-FR.ASEAF.00.HHZ</pickID>
      <waveformID networkCode="FR" stationCode="ASEAF" locationCode="00" channelCode="HHZ"/>
      <creationInfo>
        <agencyID>dt</agencyID>
        <author>scamp@pascal-VirtualBox</author>
        <creationTime>2014-03-19T12:15:46.774137Z</creationTime>
      </creationInfo>
    </amplitude>
    <amplitude publicID="20140319.121359.75-FR.ATE.00.HHZ.MLv">
      <type>MLv</type>
      <amplitude>
        <value>0.7320188188</value>
      </amplitude>
      <timeWindow>
        <reference>2014-03-19T12:15:01.198875Z</reference>
        <begin>0</begin>
        <end>0</end>
      </timeWindow>
      <snr>17.9163754</snr>
      <pickID>20140319.121359.75-FR.ATE.00.HHZ</pickID>
      <waveformID networkCode="FR" stationCode="ATE" locationCode="00" channelCode="HHZ"/>
      <creationInfo>
        <agencyID>dt</agencyID>
        <author>scautopick@pascal-VirtualBox</author>
        <creationTime>2014-03-19T12:16:45.818716Z</creationTime>
      </creationInfo>
    </amplitude>
    <amplitude publicID="Amplitude#20140319121451.748118.11212">
      <type>MLv</type>
      <amplitude>
        <value>0.2825247725</value>
      </amplitude>
      <timeWindow>
        <reference>2014-03-19T12:13:41.730911Z</reference>
        <begin>0</begin>
        <end>0</end>
      </timeWindow>
      <snr>210.9334715</snr>
      <pickID>20140319.121326.18-FR.FILF.00.HHZ</pickID>
      <waveformID networkCode="FR" stationCode="FILF" locationCode="00" channelCode="HHZ"/>
      <creationInfo>
        <agencyID>dt</agencyID>
        <author>scamp@pascal-VirtualBox</author>
        <creationTime>2014-03-19T12:14:51.74817Z</creationTime>
      </creationInfo>
    </amplitude>
    <amplitude publicID="Amplitude#20140319121512.991427.11218">
      <type>MLv</type>
      <amplitude>
        <value>4.603586464</value>
      </amplitude>
      <timeWindow>
        <reference>2014-03-19T12:13:56.162455Z</reference>
        <begin>0</begin>
        <end>0</end>
      </timeWindow>
      <snr>51.05522492</snr>
      <pickID>20140319.121332.06-FR.FNEB.00.HHZ</pickID>
      <waveformID networkCode="FR" stationCode="FNEB" locationCode="00" channelCode="HHZ"/>
      <creationInfo>
        <agencyID>dt</agencyID>
        <author>scamp@pascal-VirtualBox</author>
        <creationTime>2014-03-19T12:15:12.991481Z</creationTime>
      </creationInfo>
    </amplitude>
    <amplitude publicID="Amplitude#20140319121547.079331.11230">
      <type>MLv</type>
      <amplitude>
        <value>0.03664259634</value>
      </amplitude>
      <timeWindow>
        <reference>2014-03-19T12:14:14.237299Z</reference>
        <begin>0</begin>
        <end>0</end>
      </timeWindow>
      <snr>35.48419394</snr>
      <pickID>20140319.121342.18-FR.MLS.00.HHZ</pickID>
      <waveformID networkCode="FR" stationCode="MLS" locationCode="00" channelCode="HHZ"/>
      <creationInfo>
        <agencyID>dt</agencyID>
        <author>scamp@pascal-VirtualBox</author>
        <creationTime>2014-03-19T12:15:47.079381Z</creationTime>
      </creationInfo>
    </amplitude>
    <amplitude publicID="20140319.121353.71-FR.MONQ.00.HHZ.MLv">
      <type>MLv</type>
      <amplitude>
        <value>0.5598423056</value>
      </amplitude>
      <timeWindow>
        <reference>2014-03-19T12:14:58.859961Z</reference>
        <begin>0</begin>
        <end>0</end>
      </timeWindow>
      <snr>10.55233406</snr>
      <pickID>20140319.121353.71-FR.MONQ.00.HHZ</pickID>
      <waveformID networkCode="FR" stationCode="MONQ" locationCode="00" channelCode="HHZ"/>
      <creationInfo>
        <agencyID>dt</agencyID>
        <author>scautopick@pascal-VirtualBox</author>
        <creationTime>2014-03-19T12:16:38.61771Z</creationTime>
      </creationInfo>
    </amplitude>
    <amplitude publicID="Amplitude#20140319121437.128901.11210">
      <type>MLv</type>
      <amplitude>
        <value>10.20004585</value>
      </amplitude>
      <timeWindow>
        <reference>2014-03-19T12:13:34.324911Z</reference>
        <begin>0</begin>
        <end>0</end>
      </timeWindow>
      <snr>124.0657367</snr>
      <pickID>20140319.121321.41-FR.SJAF.00.HHZ</pickID>
      <waveformID networkCode="FR" stationCode="SJAF" locationCode="00" channelCode="HHZ"/>
      <creationInfo>
        <agencyID>dt</agencyID>
        <author>scamp@pascal-VirtualBox</author>
        <creationTime>2014-03-19T12:14:37.128953Z</creationTime>
      </creationInfo>
    </amplitude>
    <origin publicID="Origin#20140319121429.64169.9121">
      <time>
        <value>2014-03-19T12:13:06.148619Z</value>
        <uncertainty>0.6332891576</uncertainty>
      </time>
      <latitude>
        <value>41.82330322</value>
        <uncertainty>8.752980624</uncertainty>
      </latitude>
      <longitude>
        <value>3.583293438</value>
        <uncertainty>2.957592043</uncertainty>
      </longitude>
      <depth>
        <value>10</value>
        <uncertainty>0</uncertainty>
      </depth>
      <methodID>LOCSAT</methodID>
      <earthModelID>pyrenees</earthModelID>
      <quality>
        <associatedPhaseCount>16</associatedPhaseCount>
        <usedPhaseCount>15</usedPhaseCount>
        <associatedStationCount>16</associatedStationCount>
        <usedStationCount>15</usedStationCount>
        <standardError>0.5367623361</standardError>
        <azimuthalGap>197.6679306</azimuthalGap>
        <maximumDistance>3.857619047</maximumDistance>
        <minimumDistance>0.8432275057</minimumDistance>
